<?xml version="1.0" ?>
<kml xmlns="http://www.opengis.net/kml/2.2">
   <Document>
      <Placemark>
         <LineString>
            <altitudeMode>absolute</altitudeMode>
            <coordinates>11.875093532652928,48.426852197262725,761.9628162145686 12.032184671824073,48.4376992217309,761.9628162145686 12.033655253695104,48.43780175542805,761.9628162145686 12.03513371122972,48.43781886687721,761.9628162145686 12.03660878999079,48.43775042592168,761.9628162145686 12.038069261317997,48.43759695350924,761.9628162145686 12.039504007896092,48.43735961772419,761.9628162145686 12.040902108470485,48.43704022489435,761.9628162145686 12.042252921062156,48.436641205841,761.9628162145686 12.043546164045654,48.43616559737616,761.9628162145686 12.044771994470487,48.43561701918856,761.9628162145686 12.045921083027638,48.43499964629378,761.9628162145686 12.046984685088988,48.4343181772587,761.9628162145686 12.047954707277837,48.433577798441846,761.9628162145686 12.048823769063326,48.43278414452199,761.9628162145686 12.049585258910012,48.43194325561527,761.9628162145686 12.050233384555913,48.43106153130733,761.9628162145686 12.050763217037568,48.43014568195007,761.9628162145686 12.051170728128834,48.42920267759394,761.9628162145686 12.051452820910693,48.428239694943954,761.9628162145686 12.051452820910693,48.428239694943954,761.9628162145686 12.06184963839434,48.38464401107708,761.9628162145686 12.062080709170903,48.383675082508034,761.9628162145686 12.06218374511412,48.382696465992424,761.9628162145686 12.062157966997608,48.38171560925024,761.9628162145686 12.06200357595301,48.380739977050006,761.9628162145686 12.061721751826726,48.379776994400615,761.9628162145686 12.061314644091313,48.37883399004574,761.9628162145686 12.060785355384024,48.37791814069073,761.9628162145686 12.06013791780091,48.37703641638625,761.9628162145686 12.0593772621297,48.37619552748445,761.9628162145686 12.058509180258072,48.375401873571185,761.9628162145686 12.057540281045389,48.37466149476277,761.9628162145686 12.056477939995212,48.37398002573807,761.9628162145686 12.055330243112524,48.373362652855675,761.9628162145686 12.054105925373266,48.37281407468243,761.9628162145686 12.052814304274206,48.37233846623385,761.9628162145686 12.051465208967988,48.371939447198436,761.9628162145686 12.05006890552128,48.37162005438806,761.9628162145686 12.048636018862897,48.371382718623664,761.9628162145686 12.047177452013527,48.37122924623277,761.9628162145686 12.047177452013527,48.37122924623277,761.9628162145686 11.816010028098445,48.355853191687835,761.9628162145686 11.783545463078482,48.353590368844,605.3032612008534</coordinates>
         </LineString>
      </Placemark>
   </Document>
</kml>
