<?xml version="1.0" ?>
<kml xmlns="http://www.opengis.net/kml/2.2">
   <Document>
      <Placemark>
         <LineString>
            <altitudeMode>absolute</altitudeMode>
            <coordinates>11.906464402545256,48.29524936663146,761.9628162145686 12.08431234693973,48.307545308829155,761.9628162145686 12.08577917461051,48.307647842569075,761.9628162145686 12.087226989085678,48.307835018281935,761.9628162145686 12.088644773754869,48.308105411511185,761.9628162145686 12.090021740235127,48.308456964456234,761.9628162145686 12.091347410384362,48.30888700163082,761.9628162145686 12.092611695966127,48.30939225022257,761.9628162145686 12.093804975361863,48.30996886499917,761.9628162145686 12.094918166748776,48.31061245757132,761.9628162145686 12.095942797187886,48.31131812979002,761.9628162145686 12.096871067097355,48.31208051102399,761.9628162145686 12.097695909620764,48.312893799033525,761.9628162145686 12.098411044438228,48.313751804129744,761.9628162145686 12.099011025609972,48.314647996283,761.9628162145686 12.099491283086854,48.31557555482219,761.9628162145686 12.099848157569948,48.31652742034627,761.9628162145686 12.100078928451543,48.317496348453155,761.9628162145686 12.100181834622092,48.31847496487689,761.9628162145686 12.100156087981699,48.31945582161333,761.9628162145686 12.100001879550014,48.32043145360723,761.9628162145686 12.100001879550014,48.32043145360723,761.9628162145686 12.08960927132038,48.36402620109281,761.9628162145686 12.089378285303876,48.36499512919931,761.9628162145686 12.089021064666293,48.36594699472243,761.9628162145686 12.08854032363392,48.366874553259805,761.9628162145686 12.087939716873326,48.367770745410155,761.9628162145686 12.087223811762984,48.36862875050208,761.9628162145686 12.086398053704603,48.36944203850575,761.9628162145686 12.085468724735973,48.37020441973209,761.9628162145686 12.084442895758606,48.370910091941255,761.9628162145686 12.083328372742608,48.3715536845019,761.9628162145686 12.082133637317616,48.372130299265,761.9628162145686 12.08086778220198,48.372635547841334,761.9628162145686 12.079540441962196,48.373065584998706,761.9628162145686 12.078161719630808,48.373417137924974,761.9628162145686 12.076742109742938,48.373687531134124,761.9628162145686 12.075292418379474,48.373874706825866,761.9628162145686 12.073823680828022,48.373977240544015,761.9628162145686 12.072347077491308,48.37399435201439,761.9628162145686 12.070873848686224,48.37392591107999,761.9628162145686 12.070873848686224,48.37392591107999,761.9628162145686 11.816010028098445,48.355853191687835,761.9628162145686 11.783545463078482,48.353590368844,605.3032612008534</coordinates>
         </LineString>
      </Placemark>
   </Document>
</kml>
