<?xml version="1.0" ?>
<kml xmlns="http://www.opengis.net/kml/2.2">
   <Document>
      <Placemark>
         <LineString>
            <altitudeMode>absolute</altitudeMode>
            <coordinates>11.618315650132999,48.2745753143925,761.9628162145686 11.574642606956514,48.27151178761453,761.9628162145686 11.573176819810085,48.27140923523539,761.9628162145686 11.571703183668467,48.27139210490363,761.9628162145686 11.570232911332456,48.27146052706271,761.9628162145686 11.56877719006392,48.271613981049015,761.9628162145686 11.567347096554291,48.271851299051164,761.9628162145686 11.565953512729351,48.272170674994705,761.9628162145686 11.564607043027872,48.2725696782845,761.9628162145686 11.563317933780779,48.2730452723005,761.9628162145686 11.56209599530178,48.27359383750607,761.9628162145686 11.56095052728026,48.274211198993115,761.9628162145686 11.559890248042532,48.27489265825444,761.9628162145686 11.558923228218706,48.275633028941506,761.9628162145686 11.558056829319417,48.2764266763356,761.9628162145686 11.557297647689909,48.27726756023192,761.9628162145686 11.556651464268649,48.27814928091012,761.9628162145686 11.556123200534,48.27906512784159,761.9628162145686 11.555716880975982,48.28000813076268,761.9628162145686 11.555435602380912,48.280971112724984,761.9628162145686 11.555435602380912,48.280971112724984,761.9628162145686 11.545051036981162,48.324565860859195,761.9628162145686 11.544820229730606,48.32553478896602,761.9628162145686 11.544717307341722,48.32651340538973,761.9628162145686 11.544743058040005,48.32749426212617,761.9628162145686 11.544897290777092,48.32846989412005,761.9628162145686 11.545178836572527,48.32943287608177,761.9628162145686 11.5455855573014,48.330375879001586,761.9628162145686 11.546114361864282,48.33129172593084,761.9628162145686 11.546761229619502,48.33217344660559,761.9628162145686 11.547521240902293,48.333014330497,761.9628162145686 11.548388614400942,48.33380797788453,761.9628162145686 11.549356751107496,48.33454834856319,761.9628162145686 11.550418284510036,48.33522980781416,761.9628162145686 11.5515651366454,48.33584716928886,761.9628162145686 11.552788579586144,48.33639573448014,761.9628162145686 11.554079301893468,48.33687132847997,761.9628162145686 11.555427479529568,48.33727033175188,761.9628162145686 11.556822850688258,48.33758970767603,761.9628162145686 11.55825479397245,48.33782702565761,761.9628162145686 11.55971240932109,48.337980479622466,761.9628162145686 11.55971240932109,48.337980479622466,761.9628162145686 11.677415681402065,48.345624910163714,761.9628162145686 11.70987373075875,48.34789686576567,605.3032612008534</coordinates>
         </LineString>
      </Placemark>
   </Document>
</kml>
