<?xml version="1.0" ?>
<kml xmlns="http://www.opengis.net/kml/2.2">
   <Document>
      <Placemark>
         <Point>
            <coordinates>11.491004482179799,48.3431861985823,1523.9256324291373</coordinates>
            <altitudeMode>absolute</altitudeMode>
         </Point>
         <name>FAF_08L</name>
      </Placemark>
      <Placemark>
         <Point>
            <coordinates>11.65014288660916,48.354191364670484,1066.7479427003962</coordinates>
            <altitudeMode>absolute</altitudeMode>
         </Point>
         <name>SPT_08L</name>
      </Placemark>
      <Placemark>
         <Point>
            <coordinates>11.728428825687779,48.359632048110704,761.9628162145686</coordinates>
            <altitudeMode>absolute</altitudeMode>
         </Point>
         <name>END_08L</name>
      </Placemark>
      <Placemark>
         <Point>
            <coordinates>11.7675,48.36283333,447.11978055470894</coordinates>
            <altitudeMode>absolute</altitudeMode>
         </Point>
         <name>THRSHLD_08L</name>
      </Placemark>
   </Document>
</kml>
