<?xml version="1.0" ?>
<kml xmlns="http://www.opengis.net/kml/2.2">
   <Document>
      <Placemark>
         <LineString>
            <altitudeMode>absolute</altitudeMode>
            <coordinates>11.906464402545256,48.29524936663146,761.9628162145686 12.087184539620749,48.30774158669871,761.9628162145686 12.088651372932901,48.30784412043856,761.9628162145686 12.090099192976357,48.30803129615136,761.9628162145686 12.09151698309839,48.308301689380556,761.9628162145686 12.09289395487457,48.30865324232555,761.9628162145686 12.094219630122517,48.30908327950007,761.9628162145686 12.095483920566982,48.30958852809179,761.9628162145686 12.09667720455241,48.31016514286835,761.9628162145686 12.09779040022107,48.31080873544046,761.9628162145686 12.098815034601385,48.31151440765913,761.9628162145686 12.099743308081509,48.31227678889307,761.9628162145686 12.100568153777823,48.31309007690259,761.9628162145686 12.101283291346263,48.31394808199879,761.9628162145686 12.101883274826086,48.31484427415204,761.9628162145686 12.102363534150538,48.315771832691226,761.9628162145686 12.102720410006588,48.31672369821529,761.9628162145686 12.102951181776028,48.31769262632218,761.9628162145686 12.103054088342502,48.318671242745914,761.9628162145686 12.103028341603048,48.319652099482354,761.9628162145686 12.102874132578018,48.32062773147626,761.9628162145686 12.102874132578018,48.32062773147626,761.9628162145686 12.092481484299451,48.36422247895861,761.9628162145686 12.09225049739279,48.36519140706511,761.9628162145686 12.091893275378528,48.36614327258824,761.9628162145686 12.091412532493385,48.367070831125616,761.9628162145686 12.090811923417988,48.36796702327596,761.9628162145686 12.090096015548388,48.36882502836787,761.9628162145686 12.089270254307262,48.36963831637153,761.9628162145686 12.088340921756595,48.37040069759783,761.9628162145686 12.087315088825138,48.37110636980696,761.9628162145686 12.08620056151308,48.37174996236755,761.9628162145686 12.085005821482746,48.372326577130615,761.9628162145686 12.083739961487538,48.372831825706896,761.9628162145686 12.082412616131094,48.373261862864226,761.9628162145686 12.08103388848491,48.37361341579043,761.9628162145686 12.079614273124578,48.37388380899952,761.9628162145686 12.078164576172652,48.3740709846912,761.9628162145686 12.076695832959297,48.374173518409286,761.9628162145686 12.075219223930352,48.3741906298796,761.9628162145686 12.07374598944606,48.37412218894513,761.9628162145686 12.07374598944606,48.37412218894513,761.9628162145686 11.816010028098445,48.355853191687835,761.9628162145686 11.783545463078482,48.353590368844,605.3032612008534</coordinates>
         </LineString>
      </Placemark>
   </Document>
</kml>
