{
"type": "FeatureCollection",
"features": [
{
    "type": "Feature",
    "geometry": {
        "type": "LineString",
        "coordinates": [
            [
                11.59750320557704,
                48.57007043389021,
                1524.0
            ],
            [
                11.331119896127733,
                48.41277532787133,
                1524.0
            ],
            [
                11.346494307473536,
                48.3286323152754,
                1524.0
            ],
            [
                11.496440438902214,
                48.341157583887686,
                1524.0
            ],
            [
                11.767549444850726,
                48.3627651732269,
                447.20256000000006
            ]
        ]
    }
},
{
    "type": "Feature",
    "geometry": {
        "type": "LineString",
        "coordinates": [
            [
                11.816536109310194,
                48.180390414372056,
                1524.0
            ],
            [
                11.345638783616423,
                48.220659582484465,
                1524.0
            ],
            [
                11.330014384469575,
                48.30644315574884,
                1524.0
            ],
            [
                11.481501802424601,
                48.31913011043357,
                1524.0
            ],
            [
                11.751015280529284,
                48.340664931909544,
                452.78040000000004
            ]
        ]
    }
},
{
    "type": "Feature",
    "geometry": {
        "type": "LineString",
        "coordinates": [
            [
                11.816536109310194,
                48.180390414372056,
                1524.0
            ],
            [
                12.24031624409349,
                48.28941988401957,
                1524.0
            ],
            [
                12.226250115783655,
                48.37542457860183,
                1524.0
            ],
            [
                12.075648451324124,
                48.36486890629459,
                1524.0
            ],
            [
                11.80461444403871,
                48.34479684123137,
                447.96456000000006
            ]
        ]
    }
},
{
    "type": "Feature",
    "geometry": {
        "type": "LineString",
        "coordinates": [
            [
                11.59750320557704,
                48.57007043389021,
                1524.0
            ],
            [
                12.229172228945304,
                48.48183282093551,
                1524.0
            ],
            [
                12.243005026190556,
                48.39745091938049,
                1524.0
            ],
            [
                12.093967582849283,
                48.387018560366016,
                1524.0
            ],
            [
                11.821172775022543,
                48.36688159377265,
                441.53328
            ]
        ]
    }
},
{
    "type": "Feature",
    "geometry": {
        "type": "LineString",
        "coordinates": [
            [
                11.348255353722612,
                48.31844458543751,
                762.0
            ],
            [
                11.498001525086032,
                48.3309170587644,
                762.0
            ],
            [
                11.727944456981467,
                48.349290862899444,
                448.05600000000004
            ]
        ]
    }
},
{
    "type": "Feature",
    "geometry": {
        "type": "LineString",
        "coordinates": [
            [
                12.244160535464136,
                48.38711576677177,
                762.0
            ],
            [
                12.095803660455903,
                48.37672196433164,
                762.0
            ],
            [
                11.770444444688552,
                48.35258226994655,
                448.05600000000004
            ]
        ]
    }
}
]
}