<?xml version="1.0" ?>
<kml xmlns="http://www.opengis.net/kml/2.2">
   <Document>
      <Placemark>
         <LineString>
            <altitudeMode>absolute</altitudeMode>
            <coordinates>11.586957505194377,48.40617814502776,761.9628162145686 11.563186977561065,48.404517102207265,761.9628162145686 11.56171736127583,48.40441454978449,761.9628162145686 11.560266804991356,48.404227355870105,761.9628162145686 11.558846350459927,48.403956945186735,761.9628162145686 11.557466810021888,48.40360537577833,761.9628162145686 11.556138684224043,48.40317532334445,761.9628162145686 11.554872081823552,48.40267006087409,761.9628162145686 11.55367664278856,48.402093433734315,761.9628162145686 11.552561464883611,48.40144983040311,761.9628162145686 11.551535034400015,48.4007441490694,761.9628162145686 11.550605161559284,48.399981760354464,761.9628162145686 11.54977892108158,48.39916846643832,761.9628162145686 11.549062598371204,48.39831045690239,761.9628162145686 11.548461641727824,48.39741426162419,761.9628162145686 11.547980620945715,48.39648670108285,761.9628162145686 11.547623192614141,48.39553483445327,761.9628162145686 11.54739207238055,48.39456590588415,761.9628162145686 11.547289014384885,48.39358728936851,761.9628162145686 11.547314798018414,48.392606432626316,761.9628162145686 11.547469222104555,48.39163080042604,761.9628162145686 11.547469222104555,48.39163080042604,761.9628162145686 11.557858568927218,48.34803511716144,761.9628162145686 11.55808947367291,48.34706618859269,761.9628162145686 11.558446555281959,48.346114321964066,761.9628162145686 11.55892709171473,48.34518676142453,761.9628162145686 11.559527421741501,48.34429056614926,761.9628162145686 11.560242972892228,48.34343255661761,761.9628162145686 11.561068296327393,48.34261926270735,761.9628162145686 11.561997108362348,48.34185687400005,761.9628162145686 11.563022338327475,48.3411511926759,761.9628162145686 11.564136182398757,48.34050758935623,761.9628162145686 11.565330162988547,48.33993096222998,761.9628162145686 11.566595193244535,48.339425699775056,761.9628162145686 11.567921646166699,48.338995647358395,761.9628162145686 11.569299427817397,48.3386440779688,761.9628162145686 11.570718054069163,48.33837366730556,761.9628162145686 11.57216673030835,48.33818647341231,761.9628162145686 11.573634433490646,48.33808392101132,761.9628162145686 11.575109995926958,48.33806679065747,761.9628162145686 11.576582190165217,48.33813521279457,761.9628162145686 11.576582190165217,48.33813521279457,761.9628162145686 11.677415681402065,48.345624910163714,761.9628162145686 11.70987373075875,48.34789686576567,605.3032612008534</coordinates>
         </LineString>
      </Placemark>
   </Document>
</kml>
