<?xml version="1.0" ?>
<kml xmlns="http://www.opengis.net/kml/2.2">
   <Document>
      <Placemark>
         <LineString>
            <altitudeMode>absolute</altitudeMode>
            <coordinates>11.58613449246614,48.40612071797647,761.9628162145686 11.585307072549023,48.4061111272962,761.9628162145686 11.584481541831021,48.4061494460003,761.9628162145686 11.583664182341673,48.40623538248244,761.9628162145686 11.58286121397687,48.40636828273495,761.9628162145686 11.582078747194897,48.406547135325184,761.9628162145686 11.581322736542706,48.406770579092274,761.9628162145686 11.580598935365167,48.40703691350555,761.9628162145686 11.579912852041204,48.40734411160593,761.9628162145686 11.57926970807916,48.40768983543173,761.9628162145686 11.578674398389813,48.408071453811644,761.9628162145686 11.57813145403902,48.40848606238926,761.9628162145686 11.577645007763262,48.40893050572696,761.9628162145686 11.577218762510583,48.40940140132085,761.9628162145686 11.576855963246517,48.40989516534398,761.9628162145686 11.576559372239963,48.41040803992191,761.9628162145686 11.57633124801763,48.410936121733016,761.9628162145686 11.57617332814794,48.41147539171592,761.9628162145686 11.576086815986232,48.4120217456578,761.9628162145686 11.57607237148307,48.41257102543092,761.9628162145686 11.57613010612666,48.41311905063947,761.9628162145686 11.576259582058881,48.413661650435955,761.9628162145686 11.576459815372784,48.414194695264854,761.9628162145686 11.576729283567488,48.41471412829202,761.9628162145686 11.577065937104752,48.41521599628054,761.9628162145686 11.57746721498023,48.415696479678076,761.9628162145686 11.577930064191671,48.41615192168664,761.9628162145686 11.578450962956637,48.41657885609358,761.9628162145686 11.579025947503537,48.416974033651925,761.9628162145686 11.57965064223245,48.417334446809384,761.9628162145686 11.580320293016383,48.41765735259761,761.9628162145686 11.581029803389502,48.41794029350771,761.9628162145686 11.581773773346727,48.418181116193104,761.9628162145686 11.582546540459036,48.418377987857234,761.9628162145686 11.583342222991009,48.418529410201714,761.9628162145686 11.58415476469175,48.418634230828424,761.9628162145686 11.58415476469175,48.418634230828424,761.9628162145686 11.611108195892013,48.42051117471605,761.9628162145686 11.61193144251365,48.42056859589658,761.9628162145686 11.61275909788879,48.42057818064304,761.9628162145686 11.61358486228247,48.420539856032235,761.9628162145686 11.614402450370765,48.42045391375975,761.9628162145686 11.615205639110766,48.420321007919036,761.9628162145686 11.61598831513495,48.420142150022336,761.9628162145686 11.616744521308162,48.4199187013016,761.9628162145686 11.61746850209198,48.41965236234782,761.9628162145686 11.618154747370422,48.419345160167886,761.9628162145686 11.6187980344027,48.418999432757246,761.9628162145686 11.61939346758328,48.418617811305964,761.9628162145686 11.619936515706225,48.41820320017359,761.9628162145686 11.620423046450101,48.4177587547852,761.9628162145686 11.620849357820946,48.417287857616806,761.9628162145686 11.621212206314246,48.41679409245304,761.9628162145686 11.621508831581941,48.41628121711283,761.9628162145686 11.621736977417296,48.415753134850775,761.9628162145686 11.6218949088986,48.41521386465178,761.9628162145686 11.6219814255621,48.41466751064506,761.9628162145686 11.621995870504804,48.414118230870145,761.9628162145686 11.621938135348932,48.41357020563271,761.9628162145686 11.621808661031263,48.413027605690985,761.9628162145686 11.621608434412476,48.4124945605147,761.9628162145686 11.62133898073333,48.41197512685841,761.9628162145686 11.621002351976125,48.411473257887934,761.9628162145686 11.620601111220907,48.410992773095295,761.9628162145686 11.620138313116353,48.41053732923069,761.9628162145686 11.6196174806146,48.410110392473,761.9628162145686 11.619042578147624,48.40971521205043,761.9628162145686 11.618417981449687,48.40935479551212,761.9628162145686 11.617748444255675,48.409031885839,761.9628162145686 11.61703906212878,48.40874894056779,761.9628162145686 11.616295233692613,48.40850811308744,761.9628162145686 11.615522619562409,48.40831123625,761.9628162145686 11.614727099287371,48.4081598084209,761.9628162145686 11.613914726631098,48.40805498207469,761.9628162145686 11.613914726631098,48.40805498207469,761.9628162145686 11.586957505194377,48.40617814502776,761.9628162145686 11.58613449246614,48.40612071797647,761.9628162145686</coordinates>
         </LineString>
      </Placemark>
   </Document>
</kml>
