<?xml version="1.0" ?>
<kml xmlns="http://www.opengis.net/kml/2.2">
   <Document>
      <Placemark>
         <LineString>
            <altitudeMode>absolute</altitudeMode>
            <coordinates>11.906464402545256,48.29524936663146,761.9628162145686 12.05875489287619,48.305795565746415,761.9628162145686 12.060221670258915,48.3058980994869,761.9628162145686 12.061669435097544,48.30608527520032,761.9628162145686 12.06308717115927,48.3063556684301,761.9628162145686 12.064464090430894,48.30670722137566,761.9628162145686 12.06578971512948,48.307137258550696,761.9628162145686 12.067053957364397,48.30764250714287,761.9628162145686 12.06824719584695,48.308219121919855,761.9628162145686 12.069360349065741,48.30886271449234,761.9628162145686 12.070384944372359,48.30956838671132,761.9628162145686 12.071313182452489,48.31033076794552,761.9628162145686 12.07213799669216,48.31114405595525,761.9628162145686 12.072853106987008,48.312002061051594,761.9628162145686 12.07345306758421,48.312898253204956,761.9628162145686 12.073933308591576,48.313825811744216,761.9628162145686 12.07429017083593,48.31477767726834,761.9628162145686 12.074520933803143,48.31574660537523,761.9628162145686 12.074623836444363,48.31672522179897,761.9628162145686 12.074598090687026,48.31770607853541,761.9628162145686 12.074443887544529,48.31868171052932,761.9628162145686 12.074443887544529,48.31868171052932,761.9628162145686 12.06405163631698,48.362276458043674,761.9628162145686 12.063820658235473,48.36324538615018,761.9628162145686 12.063463449869795,48.36419725167333,761.9628162145686 12.062982725353269,48.36512481021078,761.9628162145686 12.062382139227156,48.36602100236123,761.9628162145686 12.061666258713233,48.3668790074533,761.9628162145686 12.060840529026313,48.36769229545716,761.9628162145686 12.059911231988496,48.36845467668371,761.9628162145686 12.058885438258459,48.36916034889316,761.9628162145686 12.05777095353817,48.369803941454116,761.9628162145686 12.056576259165873,48.370380556217604,761.9628162145686 12.055310447547466,48.37088580479437,761.9628162145686 12.05398315291835,48.37131584195221,761.9628162145686 12.052604477963829,48.37166739487899,761.9628162145686 12.051184916858306,48.371937788088665,761.9628162145686 12.049735275311212,48.372124963780976,761.9628162145686 12.048266588230804,48.37222749749969,761.9628162145686 12.04679003563546,48.37224460897065,761.9628162145686 12.045316857455663,48.372176168036816,761.9628162145686 12.045316857455663,48.372176168036816,761.9628162145686 11.816010028098445,48.355853191687835,761.9628162145686 11.783545463078482,48.353590368844,605.3032612008534</coordinates>
         </LineString>
      </Placemark>
   </Document>
</kml>
