<?xml version="1.0" ?>
<kml xmlns="http://www.opengis.net/kml/2.2">
   <Document>
      <Placemark>
         <LineString>
            <altitudeMode>absolute</altitudeMode>
            <coordinates>11.875093532652928,48.426852197262725,761.9628162145686 12.000557744656517,48.43553296684561,761.9628162145686 12.00202826382401,48.43563550054347,761.9628162145686 12.003506658319244,48.435652611993355,761.9628162145686 12.00498167418515,48.43558417103854,761.9628162145686 12.006442083240367,48.43543069862681,761.9628162145686 12.007876768643843,48.43519336284245,761.9628162145686 12.009274809606795,48.43487397001327,761.9628162145686 12.010625564604073,48.43447495096051,761.9628162145686 12.011918752448686,48.43399934249623,761.9628162145686 12.013144530609853,48.43345076430912,761.9628162145686 12.014293570176314,48.43283339141478,761.9628162145686 12.015357126892726,48.43215192238007,761.9628162145686 12.016327107727337,48.43141154356352,761.9628162145686 12.017196132463795,48.43061788964391,761.9628162145686 12.017957589848315,48.42977700073739,761.9628162145686 12.0186056878656,48.42889527642958,761.9628162145686 12.019135497762027,48.42797942707243,761.9628162145686 12.019542991482847,48.427036422716334,761.9628162145686 12.019825072240712,48.426073440066375,761.9628162145686 12.019825072240712,48.426073440066375,761.9628162145686 12.03022144724638,48.38247775623516,761.9628162145686 12.030452508189141,48.38150882766614,761.9628162145686 12.030555539747553,48.38053021115053,761.9628162145686 12.030529762728017,48.37954935440834,761.9628162145686 12.030375378253243,48.37857372220811,761.9628162145686 12.030093566119055,48.37761073955875,761.9628162145686 12.029686475706194,48.37666773520393,761.9628162145686 12.02915720951957,48.375751885849006,761.9628162145686 12.028509799483373,48.374870161544656,761.9628162145686 12.027749176175282,48.37402927264305,761.9628162145686 12.026881131236335,48.37323561873002,761.9628162145686 12.02591227324455,48.3724952399219,761.9628162145686 12.024849977389584,48.37181377089758,761.9628162145686 12.023702329332341,48.37119639801561,761.9628162145686 12.022478063677138,48.370647819842866,761.9628162145686 12.021186497524385,48.37017221139483,761.9628162145686 12.019837459608656,48.36977319236002,761.9628162145686 12.018441215560005,48.36945379955029,761.9628162145686 12.0170083898554,48.369216463786564,761.9628162145686 12.01554988505189,48.36906299139637,761.9628162145686 12.01554988505189,48.36906299139637,761.9628162145686 11.816010028098445,48.355853191687835,761.9628162145686 11.783545463078482,48.353590368844,605.3032612008534</coordinates>
         </LineString>
      </Placemark>
   </Document>
</kml>
