<?xml version="1.0" ?>
<kml xmlns="http://www.opengis.net/kml/2.2">
   <Document>
      <Placemark>
         <Point>
            <coordinates>11.875093532652928,48.426852197262725,761.9628162145686</coordinates>
            <altitudeMode>absolute</altitudeMode>
         </Point>
         <name>IAF</name>
      </Placemark>
      <Placemark>
         <Point>
            <coordinates>12.017444922731714,48.436475207425644,761.9628162145686</coordinates>
            <altitudeMode>absolute</altitudeMode>
         </Point>
         <name>DF</name>
      </Placemark>
      <Placemark>
         <Point>
            <coordinates>12.0331535941795,48.37067485861091,761.9628162145686</coordinates>
            <altitudeMode>absolute</altitudeMode>
         </Point>
         <name>DIF</name>
      </Placemark>
      <Placemark>
         <Point>
            <coordinates>11.816010028098445,48.355853191687835,761.9628162145686</coordinates>
            <altitudeMode>absolute</altitudeMode>
         </Point>
         <name>FAF</name>
      </Placemark>
      <Placemark>
         <Point>
            <coordinates>11.783545463078482,48.353590368844,605.3032612008534</coordinates>
            <altitudeMode>absolute</altitudeMode>
         </Point>
         <name>MAPt</name>
      </Placemark>
   </Document>
</kml>
