<?xml version="1.0" ?>
<kml xmlns="http://www.opengis.net/kml/2.2">
   <Document>
      <Placemark>
         <LineString>
            <altitudeMode>absolute</altitudeMode>
            <coordinates>11.906464402545256,48.29524936663146,761.9628162145686 12.137067259715133,48.31113879111663,761.9628162145686 12.13853419067859,48.311241324855374,761.9628162145686 12.139982107108212,48.31142850056708,761.9628162145686 12.14139999161812,48.31169889379523,761.9628162145686 12.142777055065869,48.312050446739256,761.9628162145686 12.144102818571662,48.31248048391288,761.9628162145686 12.145367193188731,48.312985732503755,761.9628162145686 12.146560556620978,48.31356234727958,761.9628162145686 12.14767382640599,48.31420593985105,761.9628162145686 12.148698529007955,48.31491161206917,761.9628162145686 12.149626864295534,48.31567399330267,761.9628162145686 12.150451764914317,48.31648728131184,761.9628162145686 12.15116695010173,48.31734528640777,761.9628162145686 12.151766973534,48.31824147856083,761.9628162145686 12.152247264839602,48.3191690370999,761.9628162145686 12.152604164461316,48.3201209026239,761.9628162145686 12.152834951599214,48.321089830730756,761.9628162145686 12.15293786501908,48.322068447154486,761.9628162145686 12.15291211656488,48.32304930389093,761.9628162145686 12.1527578972691,48.32402493588482,761.9628162145686 12.1527578972691,48.32402493588482,761.9628162145686 12.142364555749845,48.36761968331128,761.9628162145686 12.142133553434698,48.368588611417756,761.9628162145686 12.141776307590366,48.369540476940806,761.9628162145686 12.141295532634102,48.37046803547807,761.9628162145686 12.140694883489857,48.37136422762822,761.9628162145686 12.13997892785796,48.37222223271987,761.9628162145686 12.139153111524017,48.373035520723164,761.9628162145686 12.13822371696884,48.373797901949025,761.9628162145686 12.13719781559273,48.37450357415761,761.9628162145686 12.136083213916553,48.37514716671756,761.9628162145686 12.134888394168486,48.375723781479884,761.9628162145686 12.133622449708643,48.37622903005534,761.9628162145686 12.132295015783605,48.37665906721175,761.9628162145686 12.130916196139152,48.377010620136986,761.9628162145686 12.129496486051337,48.377281013345026,761.9628162145686 12.128046692364023,48.377468189035625,761.9628162145686 12.126577851144008,48.377570722752594,761.9628162145686 12.125101143583471,48.37758783422177,761.9628162145686 12.123627810793002,48.37751939328618,761.9628162145686 12.123627810793002,48.37751939328618,761.9628162145686 11.816010028098445,48.355853191687835,761.9628162145686 11.783545463078482,48.353590368844,605.3032612008534</coordinates>
         </LineString>
      </Placemark>
   </Document>
</kml>
