<?xml version="1.0" ?>
<kml xmlns="http://www.opengis.net/kml/2.2">
   <Document>
      <Style id="lightRedPoly">
         <PolyStyle>
            <color>ff0000ff</color>
         </PolyStyle>
      </Style>
      <Placemark>
         <styleUrl>#lightRedPoly</styleUrl>
         <Polygon>
            <extrude>1</extrude>
            <altitudeMode>clampToGround</altitudeMode>
            <outerBoundaryIs>
               <LinearRing>
                  <coordinates>11.962328111181074,48.360959432588146,1066.747942700396 11.9753710974833,48.30618946494267,1066.747942700396 12.149732877287894,48.318244467280216,1066.747942700396 12.136877363871934,48.37301418104124,1066.747942700396</coordinates>
               </LinearRing>
            </outerBoundaryIs>
         </Polygon>
      </Placemark>
   </Document>
</kml>
