<?xml version="1.0" ?>
<kml xmlns="http://www.opengis.net/kml/2.2">
   <Document>
      <Placemark>
         <LineString>
            <altitudeMode>absolute</altitudeMode>
            <coordinates>11.875093532652928,48.426852197262725,761.9628162145686 12.078895149299873,48.44088242193756,761.9628162145686 12.080365823324046,48.440984955633674,761.9628162145686 12.081844373505383,48.44100206708176,761.9628162145686 12.083319544701224,48.44093362612517,761.9628162145686 12.084780107547342,48.44078015371171,761.9628162145686 12.086214944031584,48.44054281792565,761.9628162145686 12.087613132214774,48.44022342509488,761.9628162145686 12.088964029450862,48.43982440604064,761.9628162145686 12.090257353470003,48.439348797575,761.9628162145686 12.091483260704873,48.43880021938668,761.9628162145686 12.092632421261884,48.438182846491266,761.9628162145686 12.093696089965063,48.43750137745564,761.9628162145686 12.09466617293075,48.43676099863832,761.9628162145686 12.095535289165873,48.4359673447181,761.9628162145686 12.09629682672104,48.4351264558111,761.9628162145686 12.096944992971729,48.434244731502964,761.9628162145686 12.097474858646088,48.43332888214558,761.9628162145686 12.097882395266076,48.432385877789365,761.9628162145686 12.098164505719172,48.43142289513934,761.9628162145686 12.098164505719172,48.43142289513934,761.9628162145686 12.108561973496778,48.387827211220056,761.9628162145686 12.108793058725725,48.38685828265099,761.9628162145686 12.108896101113132,48.38587966613537,761.9628162145686 12.108870321384432,48.38489880939318,761.9628162145686 12.108715920684398,48.38392317719293,761.9628162145686 12.108434078933762,48.3829601945435,761.9628162145686 12.108026945740017,48.38201719018855,761.9628162145686 12.107497623934918,48.381101340833396,761.9628162145686 12.106850145867092,48.3802196165287,761.9628162145686 12.106089442632971,48.37937872762663,761.9628162145686 12.105221306482713,48.37858507371299,761.9628162145686 12.10425234668916,48.37784469490412,761.9628162145686 12.103189939217211,48.37716322587887,761.9628162145686 12.102042170577525,48.376545852995825,761.9628162145686 12.100817776292208,48.375997274821856,761.9628162145686 12.09952607444054,48.37552166637246,761.9628162145686 12.098176894789587,48.37512264733617,761.9628162145686 12.096780504047697,48.37480325452485,761.9628162145686 12.095347527807743,48.37456591875946,761.9628162145686 12.093888869771812,48.374412446367536,761.9628162145686 12.093888869771812,48.374412446367536,761.9628162145686 11.816010028098445,48.355853191687835,761.9628162145686 11.783545463078482,48.353590368844,605.3032612008534</coordinates>
         </LineString>
      </Placemark>
   </Document>
</kml>
