<?xml version="1.0" ?>
<kml xmlns="http://www.opengis.net/kml/2.2">
   <Document>
      <Style id="lightRedPoly">
         <PolyStyle>
            <color>ff0000ff</color>
         </PolyStyle>
      </Style>
      <Placemark>
         <styleUrl>#lightRedPoly</styleUrl>
         <Polygon>
            <extrude>1</extrude>
            <altitudeMode>clampToGround</altitudeMode>
            <outerBoundaryIs>
               <LinearRing>
                  <coordinates>11.803481829005202,48.34958986511576,448.0341359341664 11.81652191008982,48.294819897706475,448.0341359341664 11.990844843263483,48.30687495267897,448.0341359341664 11.977992118377097,48.36164466631703,448.0341359341664</coordinates>
               </LinearRing>
            </outerBoundaryIs>
         </Polygon>
      </Placemark>
   </Document>
</kml>
