<?xml version="1.0" ?>
<kml xmlns="http://www.opengis.net/kml/2.2">
   <Document>
      <Style id="lightRedPoly">
         <PolyStyle>
            <color>ff9999ff</color>
         </PolyStyle>
      </Style>
      <Placemark>
         <Style id="lightRedPoly">
            <PolyStyle>
               <color>ff9999ff</color>
            </PolyStyle>
         </Style>
         <Polygon>
            <extrude>1</extrude>
            <altitudeMode>absolute</altitudeMode>
            <outerBoundaryIs>
               <LinearRing>
                  <coordinates>11.586744988909889,48.33431247713071,1087.911143092549 11.599781169073413,48.279542510038645,1087.911143092549 11.42559352303228,48.2672242133453,1087.911143092549 11.412370392888398,48.32199392706025,1087.911143092549</coordinates>
               </LinearRing>
            </outerBoundaryIs>
         </Polygon>
      </Placemark>
   </Document>
</kml>
