<?xml version="1.0" ?>
<kml xmlns="http://www.opengis.net/kml/2.2">
   <Document>
      <Placemark>
         <LineString>
            <altitudeMode>absolute</altitudeMode>
            <coordinates>11.875093532652928,48.426852197262725,761.9628162145686 12.050441723490868,48.43894569119301,761.9628162145686 12.051912341445078,48.43904822488976,761.9628162145686 12.053390835256137,48.439065336338494,761.9628162145686 12.054865950210656,48.43899689538255,761.9628162145686 12.056326457372702,48.43884342296972,761.9628162145686 12.057761239154152,48.43860608718428,761.9628162145686 12.059159374032355,48.43828669435408,761.9628162145686 12.06051021976711,48.43788767530038,761.9628162145686 12.061803494480655,48.43741206683522,761.9628162145686 12.063029354980971,48.43686348864734,761.9628162145686 12.064178471730147,48.436246115752304,761.9628162145686 12.065242099885548,48.43556464671702,761.9628162145686 12.066212145871972,48.434824267899984,761.9628162145686 12.06708122897758,48.43403061397997,761.9628162145686 12.06784273750484,48.43318972507315,761.9628162145686 12.068490879049815,48.43230800076511,761.9628162145686 12.069020724528295,48.43139215140781,761.9628162145686 12.069428245615503,48.430449147051654,761.9628162145686 12.069710345316654,48.42948616440165,761.9628162145686 12.069710345316654,48.42948616440165,761.9628162145686 12.080107417427246,48.38589048051425,761.9628162145686 12.080338493862737,48.3849215519452,761.9628162145686 12.08044153232922,48.38394293542958,761.9628162145686 12.080415753581443,48.38296207868739,761.9628162145686 12.080261358756195,48.38198644648715,761.9628162145686 12.079979527728979,48.381023463837735,761.9628162145686 12.079572410025184,48.38008045948284,761.9628162145686 12.079043108358228,48.37916461012778,761.9628162145686 12.078395654923055,48.378282885823225,761.9628162145686 12.07763498062827,48.37744199692131,761.9628162145686 12.07676687750348,48.3766483430079,761.9628162145686 12.075797954569953,48.3759079641993,761.9628162145686 12.074735587511887,48.37522649517438,761.9628162145686 12.073587862532264,48.374609122291744,761.9628162145686 12.072363514820884,48.374060544118215,761.9628162145686 12.071071862102599,48.373584935669314,761.9628162145686 12.069722733770636,48.373185916633574,761.9628162145686 12.068326396142915,48.37286652382282,761.9628162145686 12.066893474408268,48.37262918805804,761.9628162145686 12.06543487185419,48.372475715666745,761.9628162145686 12.06543487185419,48.372475715666745,761.9628162145686 11.816010028098445,48.355853191687835,761.9628162145686 11.783545463078482,48.353590368844,605.3032612008534</coordinates>
         </LineString>
      </Placemark>
   </Document>
</kml>
