<?xml version="1.0" ?>
<kml xmlns="http://www.opengis.net/kml/2.2">
   <Document>
      <Placemark>
         <LineString>
            <altitudeMode>absolute</altitudeMode>
            <coordinates>11.875093532652928,48.426852197262725,761.9628162145686 12.128789686214418,48.44426128984201,761.9628162145686 12.130260458073888,48.444363823537,761.9628162145686 12.131739106614534,48.44438093498396,761.9628162145686 12.133214375944663,48.444312494026256,761.9628162145686 12.134675035952737,48.44415902161169,761.9628162145686 12.13610996788673,48.443921685824584,761.9628162145686 12.137508249080668,48.4436022929928,761.9628162145686 12.138859236180338,48.44320327393761,761.9628162145686 12.140152646231773,48.44272766547112,761.9628162145686 12.141378635012778,48.442179087282,761.9628162145686 12.142527872009152,48.4415617143859,761.9628162145686 12.14359161146329,48.44088024534968,761.9628162145686 12.144561758953309,48.44013986653188,761.9628162145686 12.145430932995424,48.43934621261127,761.9628162145686 12.146192521200772,48.43850532370397,761.9628162145686 12.146840730559932,48.43762359939561,761.9628162145686 12.14737063147365,48.43670775003807,761.9628162145686 12.147778195196457,48.43576474568176,761.9628162145686 12.148060324410391,48.43480176303171,761.9628162145686 12.148060324410391,48.43480176303171,761.9628162145686 12.158458482578911,48.391206079056765,761.9628162145686 12.158689583151375,48.390237150487664,761.9628162145686 12.158792632380319,48.38925853397203,761.9628162145686 12.158766850940022,48.38827767722984,761.9628162145686 12.158612439989202,48.387302045029564,761.9628162145686 12.158330579527501,48.386339062380095,761.9628162145686 12.15792341930567,48.385396058025066,761.9628162145686 12.157394062361963,48.384480208669764,761.9628162145686 12.156746541313147,48.38359848436485,761.9628162145686 12.1559857875834,48.38275759546248,761.9628162145686 12.155117593807706,48.38196394154846,761.9628162145686 12.154148569697886,48.3812235627391,761.9628162145686 12.15308609170862,48.380542093713274,761.9628162145686 12.151938246887415,48.379924720829564,761.9628162145686 12.150713771336232,48.37937614265481,761.9628162145686 12.14942198375277,48.37890053420455,761.9628162145686 12.148072714556411,48.378501515167336,761.9628162145686 12.146676231136743,48.378182122355,761.9628162145686 12.145243159791642,48.377944786588564,761.9628162145686 12.143784404946613,48.377791314195534,761.9628162145686 12.143784404946613,48.377791314195534,761.9628162145686 11.816010028098445,48.355853191687835,761.9628162145686 11.783545463078482,48.353590368844,605.3032612008534</coordinates>
         </LineString>
      </Placemark>
   </Document>
</kml>
