<?xml version="1.0" ?>
<kml xmlns="http://www.opengis.net/kml/2.2">
   <Document>
      <Style id="lightRedPoly">
         <PolyStyle>
            <color>ff9999ff</color>
         </PolyStyle>
      </Style>
      <Placemark>
         <Style id="lightRedPoly">
            <PolyStyle>
               <color>ff9999ff</color>
            </PolyStyle>
         </Style>
         <Polygon>
            <extrude>1</extrude>
            <altitudeMode>absolute</altitudeMode>
            <outerBoundaryIs>
               <LinearRing>
                  <coordinates>11.549830808091588,48.34177259098927,1299.8730802658197 11.536767452951967,48.396541374090766,1299.8730802658197 11.36217976547319,48.38422253547551,1299.8730802658197 11.375430704572212,48.3294540063647,1299.8730802658197</coordinates>
               </LinearRing>
            </outerBoundaryIs>
         </Polygon>
      </Placemark>
   </Document>
</kml>
