<?xml version="1.0" ?>
<kml xmlns="http://www.opengis.net/kml/2.2">
   <Document>
      <Placemark>
         <LineString>
            <altitudeMode>absolute</altitudeMode>
            <coordinates>11.586957505194377,48.40617814502776,761.9628162145686 11.49137648590315,48.399468709741384,761.9628162145686 11.489907015467864,48.39936615732027,761.9628162145686 11.48845660314081,48.39917896340751,761.9628162145686 11.487036289578073,48.398908552725686,761.9628162145686 11.48565688604664,48.398556983318755,761.9628162145686 11.484328892050982,48.398126930886235,761.9628162145686 11.48306241534491,48.397621668417116,761.9628162145686 11.481867094939863,48.397045041278446,761.9628162145686 11.480752027697605,48.39640143794819,761.9628162145686 11.47972569906748,48.395695756615304,761.9628162145686 11.478795918496258,48.39493336790104,761.9628162145686 11.477969760002479,48.39412007398543,761.9628162145686 11.477253508367264,48.393262064449885,761.9628162145686 11.476652611350284,48.39236586917197,761.9628162145686 11.476171638293087,48.39143830863081,761.9628162145686 11.475814245422901,48.39048644200134,761.9628162145686 11.475583148118565,48.389517513432246,761.9628162145686 11.47548010034685,48.388538896916614,761.9628162145686 11.475505881422583,48.38755804017443,761.9628162145686 11.475660290190014,48.386582407974174,761.9628162145686 11.475660290190014,48.386582407974174,761.9628162145686 11.486048607978145,48.34298672479257,761.9628162145686 11.486279489854175,48.34201779622387,761.9628162145686 11.48663653609772,48.34106592959534,761.9628162145686 11.487117024939524,48.34013836905598,761.9628162145686 11.487717295513178,48.33924217378099,761.9628162145686 11.488432775802114,48.33838416424974,761.9628162145686 11.489258017506955,48.337570870339995,761.9628162145686 11.49018673756576,48.33680848163337,761.9628162145686 11.49121186600941,48.33610280031002,761.9628162145686 11.492325599786865,48.335459196991295,761.9628162145686 11.493519462150033,48.334882569866124,761.9628162145686 11.494784367146366,48.334377307412446,761.9628162145686 11.496110688728967,48.33394725499713,761.9628162145686 11.497488333959442,48.333595685609,761.9628162145686 11.498906819748115,48.333325274947306,761.9628162145686 11.500355352549798,48.33313808105568,761.9628162145686 11.501822910411203,48.33303552865634,761.9628162145686 11.503298326748546,48.33301839830417,761.9628162145686 11.504770375220982,48.333086820442944,761.9628162145686 11.504770375220982,48.333086820442944,761.9628162145686 11.677415681402065,48.345624910163714,761.9628162145686 11.70987373075875,48.34789686576567,605.3032612008534</coordinates>
         </LineString>
      </Placemark>
   </Document>
</kml>
