<?xml version="1.0" ?>
<kml xmlns="http://www.opengis.net/kml/2.2">
   <Document>
      <Placemark>
         <LineString>
            <altitudeMode>absolute</altitudeMode>
            <coordinates>11.875093532652928,48.426852197262725,761.9628162145686 12.10937256523778,48.44294897549667,761.9628162145686 12.110843299096967,48.443051509192095,761.9628162145686 12.112321909433795,48.4430686206395,761.9628162145686 12.113797140647508,48.443000179682215,761.9628162145686 12.11525776291683,48.44284670726808,761.9628162145686 12.116692657777111,48.44260937148139,761.9628162145686 12.118090902844674,48.442289978649995,761.9628162145686 12.11944185504036,48.44189095959518,761.9628162145686 12.120735231675926,48.441415351129,761.9628162145686 12.121961188783532,48.4408667729402,761.9628162145686 12.123110396090032,48.440249400044365,761.9628162145686 12.124174108063734,48.439567931008376,761.9628162145686 12.125144230491808,48.43882755219078,761.9628162145686 12.126013382081066,48.43803389827031,761.9628162145686 12.126774950613338,48.43719300936313,761.9628162145686 12.127423143228702,48.43631128505485,761.9628162145686 12.127953030455073,48.43539543569739,761.9628162145686 12.128360583650853,48.434452431341114,761.9628162145686 12.128642705577876,48.43348944869107,761.9628162145686 12.128642705577876,48.43348944869107,761.9628162145686 12.139040595591135,48.38989376473775,761.9628162145686 12.139271690204012,48.388924836168655,761.9628162145686 12.139374736775629,48.387946219653024,761.9628162145686 12.139348956000136,48.386965362910836,761.9628162145686 12.139194549030831,48.38598973071057,761.9628162145686 12.13891269583671,48.38502674806111,761.9628162145686 12.138505546112878,48.384083743706114,761.9628162145686 12.137976202817384,48.383167894350876,761.9628162145686 12.137328698462849,48.382286170046044,761.9628162145686 12.136567964346145,48.38144528114379,761.9628162145686 12.13569979295279,48.38065162722992,761.9628162145686 12.134730793824101,48.379911248420754,761.9628162145686 12.133668343224517,48.37922977939516,761.9628162145686 12.132520527993034,48.37861240651172,761.9628162145686 12.131296084006388,48.37806382833727,761.9628162145686 12.130004329722077,48.37758821988734,761.9628162145686 12.128655095306119,48.377189200850495,761.9628162145686 12.127258647883496,48.376869808038556,761.9628162145686 12.125825613478256,48.37663247227253,761.9628162145686 12.124366896234921,48.37647899987992,761.9628162145686 12.124366896234921,48.37647899987992,761.9628162145686 11.816010028098445,48.355853191687835,761.9628162145686 11.783545463078482,48.353590368844,605.3032612008534</coordinates>
         </LineString>
      </Placemark>
   </Document>
</kml>
