<?xml version="1.0" ?>
<kml xmlns="http://www.opengis.net/kml/2.2">
   <Document>
      <Placemark>
         <LineString>
            <altitudeMode>absolute</altitudeMode>
            <coordinates>11.618315650132999,48.2745753143925,761.9628162145686 11.509429138248441,48.26690579723966,761.9628162145686 11.507963483206762,48.26680324486203,761.9628162145686 11.506489979877209,48.2667861145318,761.9628162145686 11.505019840050414,48.26685453669241,761.9628162145686 11.503564249980377,48.2670079906802,761.9628162145686 11.502134285360594,48.267245308683776,761.9628162145686 11.500740827136404,48.26756468462867,761.9628162145686 11.499394478791082,48.26796368791973,761.9628162145686 11.49810548573224,48.2684392819369,761.9628162145686 11.49688365738947,48.268987847143514,761.9628162145686 11.49573829261395,48.26960520863149,761.9628162145686 11.49467810894608,48.270286667893586,761.9628162145686 11.493711176288299,48.27102703858131,761.9628162145686 11.492844855487382,48.27182068597593,761.9628162145686 11.492085742293558,48.27266156987265,761.9628162145686 11.491439617123671,48.27354329055113,761.9628162145686 11.490911401011845,48.2744591374828,761.9628162145686 11.49050511808463,48.275402140404005,761.9628162145686 11.49022386484844,48.27636512236636,761.9628162145686 11.49022386484844,48.27636512236636,761.9628162145686 11.479840237112194,48.31995987057622,761.9628162145686 11.479609450702847,48.32092879868308,761.9628162145686 11.47950653760787,48.3219074151068,761.9628162145686 11.479532285980781,48.32288827184324,761.9628162145686 11.479686504789672,48.32386390383713,761.9628162145686 11.479968025158875,48.32482688579889,761.9628162145686 11.480374709155827,48.32576988871883,761.9628162145686 11.480903465959566,48.32668573564827,761.9628162145686 11.481550275290921,48.32756745632331,761.9628162145686 11.48231021792891,48.328408340215134,761.9628162145686 11.483177513083533,48.3292019876032,761.9628162145686 11.48414556234252,48.329942358282516,761.9628162145686 11.485206999859082,48.33062381753427,761.9628162145686 11.48635374839957,48.33124117900991,761.9628162145686 11.487577080824874,48.33178974420223,761.9628162145686 11.488867686537366,48.332265338203236,761.9628162145686 11.490215742386814,48.332664341476416,761.9628162145686 11.491610987494246,48.33298371740194,761.9628162145686 11.493042801422344,48.33322103538496,761.9628162145686 11.494500285095068,48.3333744893513,761.9628162145686 11.494500285095068,48.3333744893513,761.9628162145686 11.677415681402065,48.345624910163714,761.9628162145686 11.70987373075875,48.34789686576567,605.3032612008534</coordinates>
         </LineString>
      </Placemark>
   </Document>
</kml>
