<?xml version="1.0" ?>
<kml xmlns="http://www.opengis.net/kml/2.2">
   <Document>
      <Placemark>
         <Point>
            <coordinates>11.618315650132999,48.2745753143925,761.9628162145686</coordinates>
            <altitudeMode>absolute</altitudeMode>
         </Point>
         <name>IAF</name>
      </Placemark>
      <Placemark>
         <Point>
            <coordinates>11.492650147514619,48.2656298835866,761.9628162145686</coordinates>
            <altitudeMode>absolute</altitudeMode>
         </Point>
         <name>DF</name>
      </Placemark>
      <Placemark>
         <Point>
            <coordinates>11.476994054804111,48.331432363935086,761.9628162145686</coordinates>
            <altitudeMode>absolute</altitudeMode>
         </Point>
         <name>DIF</name>
      </Placemark>
      <Placemark>
         <Point>
            <coordinates>11.677415681402065,48.345624910163714,761.9628162145686</coordinates>
            <altitudeMode>absolute</altitudeMode>
         </Point>
         <name>FAF</name>
      </Placemark>
      <Placemark>
         <Point>
            <coordinates>11.70987373075875,48.34789686576567,605.3032612008534</coordinates>
            <altitudeMode>absolute</altitudeMode>
         </Point>
         <name>MAPt</name>
      </Placemark>
   </Document>
</kml>
