<?xml version="1.0" ?>
<kml xmlns="http://www.opengis.net/kml/2.2">
   <Document>
      <Placemark>
         <LineString>
            <altitudeMode>absolute</altitudeMode>
            <coordinates>11.874270185180034,48.42679477020931,761.9628162145686 11.873442428725836,48.426785179526895,761.9628162145686 11.872616562238697,48.42682349822885,761.9628162145686 11.871798870302698,48.42690943470889,761.9628162145686 11.870995575343056,48.42704233495937,761.9628162145686 11.870212790302942,48.42722118754767,761.9628162145686 11.869456472150878,48.42744463131296,761.9628162145686 11.868732376571595,48.42771096572459,761.9628162145686 11.868046014184381,48.42801816382348,761.9628162145686 11.867402608621422,48.428363887647976,761.9628162145686 11.866807056784658,48.42874550602677,761.9628162145686 11.866263891583287,48.429160114603455,761.9628162145686 11.865777247435277,48.429604557940394,761.9628162145686 11.865350828795508,48.43007545353371,761.9628162145686 11.864987881950206,48.430569217556425,761.9628162145686 11.864691170292755,48.43108209213407,761.9628162145686 11.864462953269554,48.43161017394501,761.9628162145686 11.864304969156889,48.43214944392783,761.9628162145686 11.864218421800713,48.43269579786968,761.9628162145686 11.864203971421196,48.43324507764278,761.9628162145686 11.864261729553023,48.43379310285132,761.9628162145686 11.864391258161067,48.43433570264775,761.9628162145686 11.86459157293916,48.43486874747652,761.9628162145686 11.86486115076801,48.43538818050345,761.9628162145686 11.865197941276449,48.435890048491615,761.9628162145686 11.865599382418978,48.43637053188864,761.9628162145686 11.866062419951882,48.43682597389652,761.9628162145686 11.866583530660366,48.4372529083026,761.9628162145686 11.867158749160483,48.43764808585991,761.9628162145686 11.867783698072216,48.43800849901615,761.9628162145686 11.868453621334288,48.43833140480296,761.9628162145686 11.86916342040712,48.43861434571147,761.9628162145686 11.869907693088225,48.438855168395115,761.9628162145686 11.870680774644251,48.43905204005736,761.9628162145686 11.871476780946088,48.43920346239984,761.9628162145686 11.872289653278049,48.439308283024474,761.9628162145686 11.872289653278049,48.439308283024474,761.9628162145686 11.899254052818462,48.44118522462359,761.9628162145686 11.900077634450009,48.441242645801985,761.9628162145686 11.900905626629257,48.4412522305463,761.9628162145686 11.901731727057083,48.44121390593333,761.9628162145686 11.902549647851275,48.44112796365874,761.9628162145686 11.903353163436035,48.44099505781598,761.9628162145686 11.904136157955657,48.44081619991736,761.9628162145686 11.90489267185047,48.440592751194814,761.9628162145686 11.905616947239718,48.44032641223939,761.9628162145686 11.90630347176507,48.440019210057976,761.9628162145686 11.906947020560514,48.43967348264603,761.9628162145686 11.907542696028552,48.439291861193624,761.9628162145686 11.908085965119755,48.43887725006033,761.9628162145686 11.908572693831664,48.438432804671194,761.9628162145686 11.90899917866457,48.43796190750223,761.9628162145686 11.909362174794927,48.43746814233805,761.9628162145686 11.909658920752365,48.43695526699755,761.9628162145686 11.90988715941309,48.43642718473532,761.9628162145686 11.910045155150534,48.435887914536245,761.9628162145686 11.910131707013603,48.435341560529494,761.9628162145686 11.910146157833164,48.43479228075458,761.9628162145686 11.910088399188474,48.434244255517136,761.9628162145686 11.909958872196821,48.43370165557535,761.9628162145686 11.909758564121447,48.433168610398944,761.9628162145686 11.90948900082463,48.432649176742416,761.9628162145686 11.909152235124372,48.43214730777159,761.9628162145686 11.908750831144225,48.431666822978436,761.9628162145686 11.908287844776199,48.43121137911316,761.9628162145686 11.907766800406108,48.4307844423546,761.9628162145686 11.90719166407904,48.43038926193099,761.9628162145686 11.906566813309501,48.43002884539146,761.9628162145686 11.90589700376622,48.42970593571693,761.9628162145686 11.905187333085106,48.429422990444145,761.9628162145686 11.904443202085611,48.42918216296206,761.9628162145686 11.903670273685245,48.42898528612274,761.9628162145686 11.902874429824415,48.42883385829164,761.9628162145686 11.902061726728693,48.428729031943355,761.9628162145686 11.902061726728693,48.428729031943355,761.9628162145686 11.875093532652928,48.426852197262725,761.9628162145686 11.874270185180034,48.42679477020931,761.9628162145686</coordinates>
         </LineString>
      </Placemark>
   </Document>
</kml>
