<?xml version="1.0" ?>
<kml xmlns="http://www.opengis.net/kml/2.2">
   <Document>
      <Style id="lightRedPoly">
         <PolyStyle>
            <color>ff9999ff</color>
         </PolyStyle>
      </Style>
      <Placemark>
         <Style id="lightRedPoly">
            <PolyStyle>
               <color>ff9999ff</color>
            </PolyStyle>
         </Style>
         <Polygon>
            <extrude>1</extrude>
            <altitudeMode>absolute</altitudeMode>
            <outerBoundaryIs>
               <LinearRing>
                  <coordinates>11.822566122622538,48.36074485254809,441.633648277964 11.809497894373079,48.415513635253795,441.633648277964 11.934301269626042,48.42415098561627,441.633648277964 11.947235215830226,48.36938233270101,441.633648277964</coordinates>
               </LinearRing>
            </outerBoundaryIs>
         </Polygon>
      </Placemark>
   </Document>
</kml>
