<?xml version="1.0" ?>
<kml xmlns="http://www.opengis.net/kml/2.2">
   <Document>
      <Placemark>
         <LineString>
            <altitudeMode>absolute</altitudeMode>
            <coordinates>11.586957505194377,48.40617814502776,761.9628162145686 11.484928874202174,48.399013196982764,761.9628162145686 11.483459416924834,48.3989106445618,761.9628162145686 11.482009017584993,48.39872345064918,761.9628162145686 11.48058871673984,48.3984530399675,761.9628162145686 11.479209325559527,48.39810147056069,761.9628162145686 11.477881343454493,48.39767141812828,761.9628162145686 11.476614878088029,48.397166155659264,761.9628162145686 11.475419568385258,48.396589528520686,761.9628162145686 11.474304511126507,48.395945925190524,761.9628162145686 11.47327819168516,48.395240243857714,761.9628162145686 11.472348419438095,48.3944778551435,761.9628162145686 11.471522268340548,48.39366456122793,761.9628162145686 11.470806023117426,48.392806551692416,761.9628162145686 11.470205131479682,48.39191035641453,761.9628162145686 11.46972416272802,48.390982795873384,761.9628162145686 11.469366773057006,48.390030929243906,761.9628162145686 11.469135677821248,48.38906200067482,761.9628162145686 11.469032630971892,48.38808338415918,761.9628162145686 11.46905841181687,48.38710252741699,761.9628162145686 11.469212819202314,48.38612689521673,761.9628162145686 11.469212819202314,48.38612689521673,761.9628162145686 11.479601044155407,48.342531212042594,761.9628162145686 11.479831923968234,48.341562283473905,761.9628162145686 11.480188967021256,48.340610416845394,761.9628162145686 11.480669451569607,48.339682856306055,761.9628162145686 11.48126971677966,48.33878666103108,761.9628162145686 11.481985190675752,48.33792865149986,761.9628162145686 11.482810425007237,48.33711535759016,761.9628162145686 11.483739136768351,48.33635296888358,761.9628162145686 11.484764256053174,48.3356472875603,761.9628162145686 11.485877979880398,48.33500368424166,761.9628162145686 11.487071831577671,48.3344270571166,761.9628162145686 11.488336725273621,48.33392179466303,761.9628162145686 11.489663035007332,48.33349174224784,761.9628162145686 11.491040667930562,48.33314017285983,761.9628162145686 11.492459141047263,48.33286976219827,761.9628162145686 11.493907660908635,48.332682568306794,761.9628162145686 11.495375205659817,48.33258001590761,761.9628162145686 11.496850608816745,48.332562885555596,761.9628162145686 11.498322644138819,48.33263130769452,761.9628162145686 11.498322644138819,48.33263130769452,761.9628162145686 11.677415681402065,48.345624910163714,761.9628162145686 11.70987373075875,48.34789686576567,605.3032612008534</coordinates>
         </LineString>
      </Placemark>
   </Document>
</kml>
