<?xml version="1.0" ?>
<kml xmlns="http://www.opengis.net/kml/2.2">
   <Document>
      <Placemark>
         <LineString>
            <altitudeMode>absolute</altitudeMode>
            <coordinates>11.586957505194377,48.40617814502776,761.9628162145686 11.513350138339243,48.40101834381239,761.9628162145686 11.51188062313874,48.40091579139076,761.9628162145686 11.510430166627337,48.400728597477496,761.9628162145686 11.509009809797572,48.400458186795206,761.9628162145686 11.50763036424587,48.40010661738781,761.9628162145686 11.506302329796627,48.39967656495487,761.9628162145686 11.505035814511608,48.39917130248537,761.9628162145686 11.503840457695887,48.39859467534637,761.9628162145686 11.502725356488316,48.39795107201582,761.9628162145686 11.50169899659666,48.39724539068267,761.9628162145686 11.500769187705481,48.39648300196819,761.9628162145686 11.499943004048662,48.39566970805243,761.9628162145686 11.499226730598597,48.39481169851677,761.9628162145686 11.498625815280695,48.393915503238766,761.9628162145686 11.498144827575457,48.39298794269755,761.9628162145686 11.497787423821231,48.39203607606803,761.9628162145686 11.497556319479298,48.39106714749894,761.9628162145686 11.497453268569581,48.390088530983306,761.9628162145686 11.497479050430368,48.38910767424111,761.9628162145686 11.497633463899517,48.38813204204084,761.9628162145686 11.497633463899517,48.38813204204084,761.9628162145686 11.508022097525652,48.34453635883375,761.9628162145686 11.508252986420988,48.34356743026504,761.9628162145686 11.508610043519143,48.34261556363648,761.9628162145686 11.509090546967876,48.34168800309706,761.9628162145686 11.50969083578927,48.34079180782198,761.9628162145686 11.510406337827568,48.3399337982906,761.9628162145686 11.511231604617615,48.339120504380695,761.9628162145686 11.51216035290634,48.338358115673856,761.9628162145686 11.513185512509626,48.337652434350254,761.9628162145686 11.514299280139182,48.337008831031234,761.9628162145686 11.515493178789239,48.33643220390574,761.9628162145686 11.516758122231083,48.335926941451675,761.9628162145686 11.518084484125282,48.335496889035944,761.9628162145686 11.519462171226742,48.33514531964737,761.9628162145686 11.520880700127265,48.334874908985206,761.9628162145686 11.522329276953725,48.334687715093075,761.9628162145686 11.523796879417969,48.33458516269324,761.9628162145686 11.525272340596961,48.33456803234055,761.9628162145686 11.526744433808798,48.334636454478805,761.9628162145686 11.526744433808798,48.334636454478805,761.9628162145686 11.677415681402065,48.345624910163714,761.9628162145686 11.70987373075875,48.34789686576567,605.3032612008534</coordinates>
         </LineString>
      </Placemark>
   </Document>
</kml>
