<?xml version="1.0" ?>
<kml xmlns="http://www.opengis.net/kml/2.2">
   <Document>
      <Style id="lightRedPoly">
         <PolyStyle>
            <color>ff9999ff</color>
         </PolyStyle>
      </Style>
      <Placemark>
         <Style id="lightRedPoly">
            <PolyStyle>
               <color>ff9999ff</color>
            </PolyStyle>
         </Style>
         <Polygon>
            <extrude>1</extrude>
            <altitudeMode>absolute</altitudeMode>
            <outerBoundaryIs>
               <LinearRing>
                  <coordinates>11.687999539836477,48.35127003142755,761.9628162145686 11.674933745870455,48.40603881433096,761.9628162145686 11.500313472202915,48.393719931615635,761.9628162145686 11.51356694774668,48.33895140279764,761.9628162145686</coordinates>
               </LinearRing>
            </outerBoundaryIs>
         </Polygon>
      </Placemark>
   </Document>
</kml>
