<?xml version="1.0" ?>
<kml xmlns="http://www.opengis.net/kml/2.2">
   <Document>
      <Style id="lightRedPoly">
         <PolyStyle>
            <color>ff0000ff</color>
         </PolyStyle>
      </Style>
      <Placemark>
         <styleUrl>#lightRedPoly</styleUrl>
         <Polygon>
            <extrude>1</extrude>
            <altitudeMode>clampToGround</altitudeMode>
            <outerBoundaryIs>
               <LinearRing>
                  <coordinates>12.055200596096146,48.37731628045351,1347.2706001091026 12.042128107252847,48.432085062813265,1347.2706001091026 12.2169216580869,48.44413948074935,1347.2706001091026 12.229805946027808,48.389370952979036,1347.2706001091026</coordinates>
               </LinearRing>
            </outerBoundaryIs>
         </Polygon>
      </Placemark>
   </Document>
</kml>
