<?xml version="1.0" ?>
<kml xmlns="http://www.opengis.net/kml/2.2">
   <Document>
      <Placemark>
         <LineString>
            <altitudeMode>absolute</altitudeMode>
            <coordinates>11.618315650132999,48.2745753143925,761.9628162145686 11.496420526609043,48.26598249557249,761.9628162145686 11.494954898044645,48.26587994319515,761.9628162145686 11.493481421334135,48.26586281286522,761.9628162145686 11.492011308065686,48.26593123502612,761.9628162145686 11.490555744291292,48.26608468901422,761.9628162145686 11.489125805504436,48.26632200701809,761.9628162145686 11.487732372453952,48.266641382963265,761.9628162145686 11.486386048431607,48.267040386254585,761.9628162145686 11.485097078659955,48.267515980271995,761.9628162145686 11.483875272391392,48.26806454547882,761.9628162145686 11.482729928309098,48.268681906966975,761.9628162145686 11.481669763795948,48.269363366229236,761.9628162145686 11.480702848608546,48.270103736917086,761.9628162145686 11.479836543460603,48.27089738431182,761.9628162145686 11.479077443983096,48.27173826820862,761.9628162145686 11.478431330488323,48.27261998888717,761.9628162145686 11.477903123921367,48.27353583581887,761.9628162145686 11.477496848335932,48.274478838740094,761.9628162145686 11.477215600182332,48.275441820702476,761.9628162145686 11.477215600182332,48.275441820702476,761.9628162145686 11.466832160378575,48.319036568927494,761.9628162145686 11.466601378146356,48.32000549703435,761.9628162145686 11.466498466914121,48.32098411345808,761.9628162145686 11.466524214820966,48.32196497019453,761.9628162145686 11.46667843083828,48.322940602188424,761.9628162145686 11.466959946111396,48.32390358415021,761.9628162145686 11.467366622746303,48.32484658707017,761.9628162145686 11.46789536997785,48.32576243399965,761.9628162145686 11.46854216759952,48.326644154674746,761.9628162145686 11.46930209647928,48.32748503856665,761.9628162145686 11.470169375931695,48.328278685954814,761.9628162145686 11.471137407663887,48.329019056634266,761.9628162145686 11.472198825962371,48.32970051588619,761.9628162145686 11.473345553739714,48.33031787736201,761.9628162145686 11.47456886401481,48.33086644255455,761.9628162145686 11.475859446358623,48.33134203655578,761.9628162145686 11.477207477798814,48.33174103982921,761.9628162145686 11.478602697642248,48.33206041575501,761.9628162145686 11.480034485643976,48.332297733738315,761.9628162145686 11.481491942925375,48.332451187704955,761.9628162145686 11.481491942925375,48.332451187704955,761.9628162145686 11.677415681402065,48.345624910163714,761.9628162145686 11.70987373075875,48.34789686576567,605.3032612008534</coordinates>
         </LineString>
      </Placemark>
   </Document>
</kml>
