<?xml version="1.0" ?>
<kml xmlns="http://www.opengis.net/kml/2.2">
   <Document>
      <Placemark>
         <Point>
            <coordinates>11.618315650132999,48.2745753143925,761.9628162145686</coordinates>
            <altitudeMode>absolute</altitudeMode>
         </Point>
         <name>IAF</name>
      </Placemark>
      <Placemark>
         <Point>
            <coordinates>11.47963730543808,48.2647345614066,761.9628162145686</coordinates>
            <altitudeMode>absolute</altitudeMode>
         </Point>
         <name>DF</name>
      </Placemark>
      <Placemark>
         <Point>
            <coordinates>11.463981486975358,48.330537041721676,761.9628162145686</coordinates>
            <altitudeMode>absolute</altitudeMode>
         </Point>
         <name>DIF</name>
      </Placemark>
      <Placemark>
         <Point>
            <coordinates>11.677415681402065,48.345624910163714,761.9628162145686</coordinates>
            <altitudeMode>absolute</altitudeMode>
         </Point>
         <name>FAF</name>
      </Placemark>
      <Placemark>
         <Point>
            <coordinates>11.70987373075875,48.34789686576567,605.3032612008534</coordinates>
            <altitudeMode>absolute</altitudeMode>
         </Point>
         <name>MAPt</name>
      </Placemark>
   </Document>
</kml>
