<?xml version="1.0" ?>
<kml xmlns="http://www.opengis.net/kml/2.2">
   <Document>
      <Placemark>
         <LineString>
            <altitudeMode>absolute</altitudeMode>
            <coordinates>11.875093532652928,48.426852197262725,761.9628162145686 11.888135075377315,48.37215314368363,761.9628162145686 11.88836608946711,48.37118421511469,761.9628162145686 11.888469100134206,48.37020559859909,761.9628162145686 11.888443328341198,48.36922474185691,761.9628162145686 11.888288975168226,48.368249109656716,761.9628162145686 11.888007220170156,48.367286127007475,761.9628162145686 11.887600212290272,48.36634312265292,761.9628162145686 11.887071053402927,48.36542727329844,761.9628162145686 11.886423774613501,48.36454554899474,761.9628162145686 11.885663305498886,48.36370466009404,761.9628162145686 11.884795436525007,48.3629110061822,761.9628162145686 11.88382677492942,48.362170627375555,761.9628162145686 11.882764694406186,48.361489158353,761.9628162145686 11.88161727897687,48.360871785473115,761.9628162145686 11.880393261475174,48.36032320730272,761.9628162145686 11.87910195711308,48.3598475988573,761.9628162145686 11.877753192633266,48.35944857982536,761.9628162145686 11.87635723158554,48.35912918701869,761.9628162145686 11.87492469629408,48.3588918512582,761.9628162145686 11.873466487106901,48.35873837887135,761.9628162145686 11.873466487106901,48.35873837887135,761.9628162145686 11.816010028098445,48.355853191687835,761.9628162145686 11.783545463078482,48.353590368844,605.3032612008534</coordinates>
         </LineString>
      </Placemark>
   </Document>
</kml>
