<?xml version="1.0" ?>
<kml xmlns="http://www.opengis.net/kml/2.2">
   <Document>
      <Placemark>
         <LineString>
            <altitudeMode>absolute</altitudeMode>
            <coordinates>11.907285627474826,48.29530678782489,761.9628162145686 11.908111250330393,48.29531637258439,761.9628162145686 11.908934986851019,48.29527804798654,761.9628162145686 11.9097505671513,48.29519210572678,761.9628162145686 11.910551783473622,48.29505919989833,761.9628162145686 11.911332537465963,48.2948803420133,761.9628162145686 11.912086886624392,48.29465689330345,761.9628162145686 11.912809089545915,48.29439055435965,761.9628162145686 11.913493649646409,48.294083352188686,761.9628162145686 11.914135357010315,48.29373762478591,761.9628162145686 11.914729328052973,48.29335600334137,761.9628162145686 11.915271042693467,48.29294139221462,761.9628162145686 11.915756378754848,48.292496946830745,761.9628162145686 11.916181643329946,48.29202604966582,761.9628162145686 11.916543600874276,48.29153228450457,761.9628162145686 11.916839497812592,48.29101940916603,761.9628162145686 11.917067083472356,48.290491326904956,761.9628162145686 11.917224627185522,48.28995205670644,761.9628162145686 11.917310931429295,48.28940570269985,761.9628162145686 11.91732534090679,48.288856422924944,761.9628162145686 11.917267747499492,48.28830839768757,761.9628162145686 11.917138591054877,48.287765797746154,761.9628162145686 11.916938856004279,48.287232752570645,761.9628162145686 11.91667006383779,48.286713318915716,761.9628162145686 11.91633426149446,48.28621144994741,761.9628162145686 11.915934005757096,48.28573096515783,761.9628162145686 11.915472343771198,48.28527552129731,761.9628162145686 11.914952789837026,48.28484858454478,761.9628162145686 11.914379298651903,48.28445340412849,761.9628162145686 11.913756235206796,48.28409298759762,761.9628162145686 11.913088341566398,48.28377007793303,761.9628162145686 11.9123807007856,48.28348713267142,761.9628162145686 11.911638698236699,48.283246305201594,761.9628162145686 11.910867980641349,48.283049428375506,761.9628162145686 11.910074413118465,48.28289800055843,761.9628162145686 11.909264034574306,48.28279317422478,761.9628162145686 11.909264034574306,48.28279317422478,761.9628162145686 11.882384342591605,48.28090995107892,761.9628162145686 11.881563350058888,48.28085252404053,761.9628162145686 11.880737961154647,48.28084293337329,761.9628162145686 11.879914456814955,48.28088125209036,761.9628162145686 11.879099103652566,48.280967188585215,761.9628162145686 11.878298106298821,48.281100088849975,761.9628162145686 11.877517560215635,48.281278941451866,761.9628162145686 11.876763405335682,48.28150238522983,761.9628162145686 11.876041380882699,48.28176871965308,761.9628162145686 11.875356981714924,48.28207591776242,761.9628162145686 11.874715416523257,48.2824216415961,761.9628162145686 11.874121568201739,48.28280325998275,761.9628162145686 11.873579956691596,48.28321786856596,761.9628162145686 11.873094704581472,48.28366231190816,761.9628162145686 11.872669505725634,48.2841332075055,761.9628162145686 11.872307597119192,48.28462697153113,761.9628162145686 11.872011734244758,48.28513984611073,761.9628162145686 11.871784170078694,48.28566792792282,761.9628162145686 11.87162663791745,48.286207197906194,761.9628162145686 11.87154033815548,48.286753551848214,761.9628162145686 11.871525929116327,48.28730283162134,761.9628162145686 11.871583522007644,48.287850856829955,761.9628162145686 11.871712680039623,48.28839345662675,761.9628162145686 11.871912421714587,48.2889265014564,761.9628162145686 11.872181228263775,48.28944593448495,761.9628162145686 11.872517055175743,48.28994780247563,761.9628162145686 11.872917347729512,48.29042828587623,761.9628162145686 11.873379060415132,48.29088372788887,761.9628162145686 11.87389868009448,48.29131066230097,761.9628162145686 11.874472252726598,48.29170583986562,761.9628162145686 11.875095413454492,48.29206625303051,761.9628162145686 11.87576341982463,48.29238915882728,761.9628162145686 11.87647118788629,48.29267209974695,761.9628162145686 11.877213330895824,48.29291292244287,761.9628162145686 11.877984200330902,48.293109794118386,761.9628162145686 11.878777928902066,48.29326121647491,761.9628162145686 11.879588475233527,48.293366037114176,761.9628162145686 11.879588475233527,48.293366037114176,761.9628162145686 11.906464402545256,48.29524936663146,761.9628162145686 11.907285627474826,48.29530678782489,761.9628162145686</coordinates>
         </LineString>
      </Placemark>
   </Document>
</kml>
