<?xml version="1.0" ?>
<kml xmlns="http://www.opengis.net/kml/2.2">
   <Document>
      <Placemark>
         <LineString>
            <altitudeMode>absolute</altitudeMode>
            <coordinates>11.618315650132999,48.2745753143925,761.9628162145686 11.446605991524832,48.262432973407684,761.9628162145686 11.445140464736694,48.262330421031514,761.9628162145686 11.443667090347374,48.26231329070276,761.9628162145686 11.442197079166796,48.26238171286483,761.9628162145686 11.44074161647047,48.262535166854065,761.9628162145686 11.439311776983045,48.26277248485905,761.9628162145686 11.437918440698006,48.26309186080526,761.9628162145686 11.436572210170981,48.263490864097555,761.9628162145686 11.435283329913185,48.26396645811586,761.9628162145686 11.434061608495874,48.264515023323504,761.9628162145686 11.432916343956457,48.26513238481237,761.9628162145686 11.43185625307232,48.26581384407524,761.9628162145686 11.430889405039462,48.26655421476359,761.9628162145686 11.430023160060134,48.267347862158736,761.9628162145686 11.429264113306905,48.268188746055856,761.9628162145686 11.428618044690207,48.26907046673462,761.9628162145686 11.42808987481287,48.26998631366647,761.9628162145686 11.427683627448571,48.27092931658778,761.9628162145686 11.427402398831983,48.27189229855019,761.9628162145686 11.427402398831983,48.27189229855019,761.9628162145686 11.417019681423634,48.31548704683349,761.9628162145686 11.416788915247915,48.31645597494039,761.9628162145686 11.4166860111759,48.317434591364126,761.9628162145686 11.41671175729123,48.31841544810058,761.9628162145686 11.416865962577974,48.31939108009449,761.9628162145686 11.417147458262193,48.32035406205632,761.9628162145686 11.417554106598065,48.32129706497637,761.9628162145686 11.418082817034977,48.32221291190601,761.9628162145686 11.418729569645693,48.32309463258134,761.9628162145686 11.419489445640076,48.323935516473554,761.9628162145686 11.42035666473463,48.32472916386212,761.9628162145686 11.421324629095407,48.32546953454208,761.9628162145686 11.422385973521349,48.326150993794606,761.9628162145686 11.423532621487054,48.326768355271135,761.9628162145686 11.42475584661877,48.32731692046447,761.9628162145686 11.426046339135512,48.32779251446661,761.9628162145686 11.427394276748744,48.32819151774101,761.9628162145686 11.42878939947968,48.32851089366786,761.9628162145686 11.430221087822796,48.32874821165226,761.9628162145686 11.431678443658345,48.328901665620066,761.9628162145686 11.431678443658345,48.328901665620066,761.9628162145686 11.677415681402065,48.345624910163714,761.9628162145686 11.70987373075875,48.34789686576567,605.3032612008534</coordinates>
         </LineString>
      </Placemark>
   </Document>
</kml>
