<?xml version="1.0" ?>
<kml xmlns="http://www.opengis.net/kml/2.2">
   <Document>
      <Placemark>
         <LineString>
            <altitudeMode>absolute</altitudeMode>
            <coordinates>11.618315650132999,48.2745753143925,761.9628162145686 11.476802596907813,48.26458725179457,761.9628162145686 11.475337008351914,48.2644846994177,761.9628162145686 11.473863571864118,48.26446756908823,761.9628162145686 11.472393498726666,48.264535991249595,761.9628162145686 11.470937974686311,48.26468944523813,761.9628162145686 11.469508074934309,48.26492676324245,761.9628162145686 11.468114679922563,48.26524613918803,761.9628162145686 11.466768392653462,48.265645142479734,761.9628162145686 11.46547945806993,48.266120736497484,761.9628162145686 11.464257685156605,48.266669301704646,761.9628162145686 11.463112372342813,48.267286663193076,761.9628162145686 11.462052236773411,48.26796812245558,761.9628162145686 11.461085347984627,48.26870849314363,761.9628162145686 11.460219066489117,48.26950214053852,761.9628162145686 11.459459987737654,48.27034302443545,761.9628162145686 11.458813891884564,48.271224745114075,761.9628162145686 11.458285699740388,48.27214059204585,761.9628162145686 11.457879435248753,48.27308359496712,761.9628162145686 11.457598194775203,48.27404657692949,761.9628162145686 11.457598194775203,48.27404657692949,761.9628162145686 11.44721503894689,48.31764132517743,761.9628162145686 11.446984263026522,48.31861025328431,761.9628162145686 11.446881354608989,48.319588869708035,761.9628162145686 11.446907101811586,48.32056972644448,761.9628162145686 11.447061313610686,48.32154535843838,761.9628162145686 11.447342821183357,48.32250834040017,761.9628162145686 11.447749486693843,48.32345134332016,761.9628162145686 11.448278219461328,48.32436719024971,761.9628162145686 11.44892499938908,48.325248910924905,761.9628162145686 11.449684907479465,48.32608979481693,761.9628162145686 11.450552163205053,48.326883442205265,761.9628162145686 11.451520168453373,48.32762381288491,761.9628162145686 11.452581557712374,48.328305272137065,761.9628162145686 11.45372825411556,48.32892263361317,761.9628162145686 11.454951530920582,48.329471198806026,761.9628162145686 11.456242077953148,48.32994679280761,761.9628162145686 11.457590072509728,48.330345796081424,761.9628162145686 11.458985254177994,48.33066517200764,761.9628162145686 11.460417003003672,48.330902489991374,761.9628162145686 11.461874420406453,48.331055943958475,761.9628162145686 11.461874420406453,48.331055943958475,761.9628162145686 11.677415681402065,48.345624910163714,761.9628162145686 11.70987373075875,48.34789686576567,605.3032612008534</coordinates>
         </LineString>
      </Placemark>
   </Document>
</kml>
