<?xml version="1.0" ?>
<kml xmlns="http://www.opengis.net/kml/2.2">
   <Document>
      <Style id="lightRedPoly">
         <PolyStyle>
            <color>ff9999ff</color>
         </PolyStyle>
      </Style>
      <Placemark>
         <Style id="lightRedPoly">
            <PolyStyle>
               <color>ff9999ff</color>
            </PolyStyle>
         </Style>
         <Polygon>
            <extrude>1</extrude>
            <altitudeMode>absolute</altitudeMode>
            <outerBoundaryIs>
               <LinearRing>
                  <coordinates>11.62239365887865,48.33676298816425,949.0665237860468 11.635430464534942,48.28199302102131,949.0665237860468 11.461234465968623,48.269674713003006,949.0665237860468 11.448010685259378,48.32444442674452,949.0665237860468</coordinates>
               </LinearRing>
            </outerBoundaryIs>
         </Polygon>
      </Placemark>
   </Document>
</kml>
