<?xml version="1.0" ?>
<kml xmlns="http://www.opengis.net/kml/2.2">
   <Document>
      <Style id="lightRedPoly">
         <PolyStyle>
            <color>ff0000ff</color>
         </PolyStyle>
      </Style>
      <Placemark>
         <styleUrl>#lightRedPoly</styleUrl>
         <Polygon>
            <extrude>1</extrude>
            <altitudeMode>clampToGround</altitudeMode>
            <outerBoundaryIs>
               <LinearRing>
                  <coordinates>11.768894515907625,48.356752173878675,447.11978055470894 11.755827313616528,48.411520956667715,447.11978055470894 11.631076460574954,48.40274870153391,447.11978055470894 11.644277787510791,48.347980048426194,447.11978055470894</coordinates>
               </LinearRing>
            </outerBoundaryIs>
         </Polygon>
      </Placemark>
   </Document>
</kml>
