<?xml version="1.0" ?>
<kml xmlns="http://www.opengis.net/kml/2.2">
   <Document>
      <Placemark>
         <LineString>
            <altitudeMode>absolute</altitudeMode>
            <coordinates>11.586957505194377,48.40617814502776,761.9628162145686 11.43510290421789,48.395480652659586,761.9628162145686 11.433633548970537,48.395378100239775,761.9628162145686 11.43218325033675,48.395190906328295,761.9628162145686 11.430763048106877,48.3949204956477,761.9628162145686 11.429383752700192,48.39456892624193,761.9628162145686 11.428055862797965,48.39413887381047,761.9628162145686 11.426789485361594,48.39363361134233,761.9628162145686 11.425594258646932,48.39305698420453,761.9628162145686 11.424479278802758,48.392413380875034,761.9628162145686 11.423453030613462,48.39170769954278,761.9628162145686 11.422523322913944,48.390945310829025,761.9628162145686 11.421697229168618,48.39013201691382,761.9628162145686 11.420981033666443,48.389274007378596,761.9628162145686 11.420380183740615,48.388377812100906,761.9628162145686 11.41989924837513,48.38745025155988,761.9628162145686 11.41954188351129,48.386498384930476,761.9628162145686 11.419310804315796,48.38552945636142,761.9628162145686 11.419207764618651,48.384550839845794,761.9628162145686 11.41923354367431,48.383569983103605,761.9628162145686 11.419387940343478,48.38259435090336,761.9628162145686 11.419387940343478,48.38259435090336,761.9628162145686 11.429775445430707,48.338998667787294,761.9628162145686 11.430006309244956,48.338029739218626,761.9628162145686 11.430363327557874,48.33707787259017,761.9628162145686 11.430843778813742,48.33615031205096,761.9628162145686 11.431444002433093,48.335254116776184,761.9628162145686 11.432159426757487,48.33439610724524,761.9628162145686 11.432984603914147,48.33358281333592,761.9628162145686 11.433913251332916,48.332820424629816,761.9628162145686 11.434938299597919,48.3321147433071,761.9628162145686 11.436051946268583,48.33147113998913,761.9628162145686 11.437245715259875,48.33089451286484,761.9628162145686 11.438510521329851,48.33038925041212,761.9628162145686 11.439836739184361,48.32995919799789,761.9628162145686 11.441214276674188,48.3296076286109,761.9628162145686 11.442632651529278,48.329337217950425,761.9628162145686 11.444081071048279,48.32915002406007,761.9628162145686 11.445548514139556,48.32904747166205,761.9628162145686 11.447023815092273,48.329030341311196,761.9628162145686 11.448495748443186,48.32909876345128,761.9628162145686 11.448495748443186,48.32909876345128,761.9628162145686 11.677415681402065,48.345624910163714,761.9628162145686 11.70987373075875,48.34789686576567,605.3032612008534</coordinates>
         </LineString>
      </Placemark>
   </Document>
</kml>
