<?xml version="1.0" ?>
<kml xmlns="http://www.opengis.net/kml/2.2">
   <Document>
      <Placemark>
         <LineString>
            <altitudeMode>absolute</altitudeMode>
            <coordinates>11.906464402545256,48.29524936663146,761.9628162145686 12.00888287858508,48.302364519726474,761.9628162145686 12.010349557372672,48.3024670534681,761.9628162145686 12.01179722489353,48.302654229182615,761.9628162145686 12.013214865655089,48.302924622413464,761.9628162145686 12.014591692369109,48.30327617536001,761.9628162145686 12.015917227956805,48.30370621253597,761.9628162145686 12.017181385205564,48.30421146112897,761.9628162145686 12.018374543473419,48.30478807590671,761.9628162145686 12.019487621859499,48.30543166847985,761.9628162145686 12.020512148285082,48.30613734069939,761.9628162145686 12.021440323960366,48.30689972193403,761.9628162145686 12.022265082746726,48.30771300994411,761.9628162145686 12.022980144962348,48.30857101504072,761.9628162145686 12.023580065220951,48.30946720719427,761.9628162145686 12.02406027393806,48.31039476573364,761.9628162145686 12.024417112187047,48.31134663125782,761.9628162145686 12.024647859637263,48.31231555936474,761.9628162145686 12.024750755358848,48.31329417578847,761.9628162145686 12.024725011332828,48.31427503252491,761.9628162145686 12.024570818560353,48.31525066451882,761.9628162145686 12.024570818560353,48.31525066451882,761.9628162145686 12.01417926727372,48.35884541208962,761.9628162145686 12.013948304749622,48.359814340196166,761.9628162145686 12.013591120444335,48.360766205719386,761.9628162145686 12.0131104283089,48.36169376425694,761.9628162145686 12.012509882638904,48.362589956407575,761.9628162145686 12.011794050348906,48.36344796149991,761.9628162145686 12.010968376287277,48.36426124950412,761.9628162145686 12.010039141853246,48.36502363073113,761.9628162145686 12.009013417229385,48.36572930294112,761.9628162145686 12.00789900759195,48.36637289550273,761.9628162145686 12.00670439370786,48.36694951026695,761.9628162145686 12.005438667370445,48.36745475884455,761.9628162145686 12.00411146216594,48.367884796003324,761.9628162145686 12.002732880098854,48.368236348931084,761.9628162145686 12.001313414636357,48.368506742141825,761.9628162145686 11.999863870759604,48.36869391783523,761.9628162145686 11.998395282633096,48.36879645155509,761.9628162145686 11.996918829521658,48.368813563027196,761.9628162145686 11.995445750598172,48.368745122094495,761.9628162145686 11.995445750598172,48.368745122094495,761.9628162145686 11.816010028098445,48.355853191687835,761.9628162145686 11.783545463078482,48.353590368844,605.3032612008534</coordinates>
         </LineString>
      </Placemark>
   </Document>
</kml>
