<?xml version="1.0" ?>
<kml xmlns="http://www.opengis.net/kml/2.2">
   <Document>
      <Placemark>
         <LineString>
            <altitudeMode>absolute</altitudeMode>
            <coordinates>11.618315650132999,48.2745753143925,761.9628162145686 11.524817587551023,48.26799607338849,761.9628162145686 11.523351901242062,48.2678935210105,761.9628162145686 11.521878366477813,48.2678763906799,761.9628162145686 11.520408195288002,48.26794481284015,761.9628162145686 11.518952574165178,48.268098266827586,761.9628162145686 11.517522579039033,48.26833558483083,761.9628162145686 11.516129091086961,48.2686549607754,761.9628162145686 11.514782714018391,48.26905396406617,761.9628162145686 11.51349369345947,48.269529558083065,761.9628162145686 11.512271839049045,48.27007812328943,761.9628162145686 11.511126449836691,48.27069548477717,761.9628162145686 11.510066243548817,48.27137694403909,761.9628162145686 11.509099290260094,48.27211731472666,761.9628162145686 11.508232950974422,48.272910962121166,761.9628162145686 11.507473821582861,48.27375184601779,761.9628162145686 11.506827682625717,48.2746335666962,761.9628162145686 11.506299455242258,48.27554941362782,761.9628162145686 11.505893163645062,48.276492416549004,761.9628162145686 11.505611904406791,48.27745539851135,761.9628162145686 11.505611904406791,48.27745539851135,761.9628162145686 11.49522805473917,48.32105014670331,761.9628162145686 11.49499726339701,48.32201907481016,761.9628162145686 11.4948943481023,48.32299769123388,761.9628162145686 11.494920097025593,48.323978547970334,761.9628162145686 11.495074319131087,48.32495417996422,761.9628162145686 11.49535584551831,48.32591716192598,761.9628162145686 11.495762538209176,48.32686016484589,761.9628162145686 11.496291306316811,48.32777601177529,761.9628162145686 11.496938129476248,48.328657732450274,761.9628162145686 11.497698088361469,48.329498616342,761.9628162145686 11.498565402058988,48.33029226372994,761.9628162145686 11.499533472015548,48.331032634409105,761.9628162145686 11.500594932226932,48.33171409366068,761.9628162145686 11.501741705286825,48.33233145513609,761.9628162145686 11.502965063869533,48.33288002032817,761.9628162145686 11.504255697178333,48.33335561432889,761.9628162145686 11.505603781852917,48.33375461760176,761.9628162145686 11.506999056794855,48.33407399352696,761.9628162145686 11.508430901339665,48.33431131150962,761.9628162145686 11.509888416178171,48.33446476547561,761.9628162145686 11.509888416178171,48.33446476547561,761.9628162145686 11.677415681402065,48.345624910163714,761.9628162145686 11.70987373075875,48.34789686576567,605.3032612008534</coordinates>
         </LineString>
      </Placemark>
   </Document>
</kml>
