<?xml version="1.0" ?>
<kml xmlns="http://www.opengis.net/kml/2.2">
   <Document>
      <Placemark>
         <LineString>
            <altitudeMode>absolute</altitudeMode>
            <coordinates>11.586957505194377,48.40617814502776,761.9628162145686 11.519242803799173,48.40143318107506,761.9628162145686 11.51777327661437,48.401330628653305,761.9628162145686 11.516322808274175,48.4011434347399,761.9628162145686 11.514902439861197,48.40087302405747,761.9628162145686 11.51352298306006,48.40052145464996,761.9628162145686 11.512194937780805,48.400091402216916,761.9628162145686 11.510928412167639,48.399586139747306,761.9628162145686 11.50973304560425,48.39900951260821,761.9628162145686 11.508617935303668,48.39836590927758,761.9628162145686 11.507591567042846,48.39766022794437,761.9628162145686 11.50666175057,48.396897839229844,761.9628162145686 11.505835560176669,48.39608454531404,761.9628162145686 11.50511928088645,48.39522653577835,761.9628162145686 11.504518360669126,48.394330340500325,761.9628162145686 11.504037369042393,48.393402779959104,761.9628162145686 11.50367996237435,48.392450913329576,761.9628162145686 11.503448856148353,48.39148198476047,761.9628162145686 11.503345804398549,48.390503368244836,761.9628162145686 11.503371586469505,48.38952251150265,761.9628162145686 11.503526001197372,48.388546879302375,761.9628162145686 11.503526001197372,48.388546879302375,761.9628162145686 11.513914719377935,48.344951196088466,761.9628162145686 11.514145610152442,48.34398226751975,761.9628162145686 11.514502670156535,48.34303040089119,761.9628162145686 11.514983177515756,48.34210284035177,761.9628162145686 11.515583471222335,48.341206645076674,761.9628162145686 11.516298979083256,48.340348635545276,761.9628162145686 11.517124252588976,48.33953534163533,761.9628162145686 11.518053008435263,48.338772952928444,761.9628162145686 11.519078176380434,48.338067271604785,761.9628162145686 11.520191953072692,48.337423668285695,761.9628162145686 11.521385861437274,48.3368470411601,761.9628162145686 11.522650815171541,48.336341778705936,761.9628162145686 11.52397718785774,48.33591172629009,761.9628162145686 11.525354886168675,48.33556015690139,761.9628162145686 11.526773426610868,48.335289746239084,761.9628162145686 11.5282220152234,48.335102552346825,761.9628162145686 11.529689629628473,48.33499999994685,761.9628162145686 11.53116510281223,48.334982869594036,761.9628162145686 11.532637208001452,48.33505129173216,761.9628162145686 11.532637208001452,48.33505129173216,761.9628162145686 11.677415681402065,48.345624910163714,761.9628162145686 11.70987373075875,48.34789686576567,605.3032612008534</coordinates>
         </LineString>
      </Placemark>
   </Document>
</kml>
