<?xml version="1.0" ?>
<kml xmlns="http://www.opengis.net/kml/2.2">
   <Document>
      <Placemark>
         <Point>
            <coordinates>11.586957505194377,48.40617814502776,761.9628162145686</coordinates>
            <altitudeMode>absolute</altitudeMode>
         </Point>
         <name>IAF</name>
      </Placemark>
      <Placemark>
         <Point>
            <coordinates>11.502392834358584,48.400323919234324,761.9628162145686</coordinates>
            <altitudeMode>absolute</altitudeMode>
         </Point>
         <name>DF</name>
      </Placemark>
      <Placemark>
         <Point>
            <coordinates>11.518090338930447,48.33452356906184,761.9628162145686</coordinates>
            <altitudeMode>absolute</altitudeMode>
         </Point>
         <name>DIF</name>
      </Placemark>
      <Placemark>
         <Point>
            <coordinates>11.677415681402065,48.345624910163714,761.9628162145686</coordinates>
            <altitudeMode>absolute</altitudeMode>
         </Point>
         <name>FAF</name>
      </Placemark>
      <Placemark>
         <Point>
            <coordinates>11.70987373075875,48.34789686576567,605.3032612008534</coordinates>
            <altitudeMode>absolute</altitudeMode>
         </Point>
         <name>MAPt</name>
      </Placemark>
   </Document>
</kml>
