<?xml version="1.0" ?>
<kml xmlns="http://www.opengis.net/kml/2.2">
   <Document>
      <Placemark>
         <LineString>
            <altitudeMode>absolute</altitudeMode>
            <coordinates>11.906464402545256,48.29524936663146,761.9628162145686 11.893428543843694,48.34994694681229,761.9628162145686 11.893197621654332,48.350915874918904,761.9628162145686 11.892840499728935,48.351867740442295,761.9628162145686 11.892359891545958,48.35279529898018,761.9628162145686 11.891759450764036,48.3536914911313,761.9628162145686 11.891043743501221,48.35454949622433,761.9628162145686 11.890218213655851,48.35536278422946,761.9628162145686 11.889289141530787,48.356125165457655,761.9628162145686 11.888263596074236,48.356830837669065,761.9628162145686 11.887149381099466,48.357474430232365,761.9628162145686 11.885954975892178,48.35805104499854,761.9628162145686 11.88468947065751,48.35855629357831,761.9628162145686 11.883362497298663,48.358986330739455,761.9628162145686 11.881984156055085,48.3593378836698,761.9628162145686 11.880564938560342,48.359608276883264,761.9628162145686 11.879115647907437,48.35979545257951,761.9628162145686 11.877647316332581,48.3598979863023,761.9628162145686 11.876171121146903,48.35991509777736,761.9628162145686 11.874698299559116,48.35984665684761,761.9628162145686 11.874698299559116,48.35984665684761,761.9628162145686 11.816010028098445,48.355853191687835,761.9628162145686 11.783545463078482,48.353590368844,605.3032612008534</coordinates>
         </LineString>
      </Placemark>
   </Document>
</kml>
