<?xml version="1.0" ?>
<kml xmlns="http://www.opengis.net/kml/2.2">
   <Document>
      <Placemark>
         <LineString>
            <altitudeMode>absolute</altitudeMode>
            <coordinates>11.618315650132999,48.2745753143925,761.9628162145686 11.605285077067233,48.32927289510822,761.9628162145686 11.605054248512833,48.330241823215,761.9628162145686 11.604951316623737,48.331220439638706,761.9628162145686 11.60497706969901,48.33220129637516,761.9628162145686 11.605131316673472,48.33317692836902,761.9628162145686 11.605412888459554,48.33413991033068,761.9628162145686 11.60581964673573,48.33508291325038,761.9628162145686 11.606348500117917,48.335998760179436,761.9628162145686 11.606995427593903,48.33688048085389,761.9628162145686 11.607755509045282,48.337721364744894,761.9628162145686 11.608622962627043,48.338515012131886,761.9628162145686 11.609591188722332,48.33925538280987,761.9628162145686 11.610652820139336,48.339936842060034,761.9628162145686 11.61179977816919,48.340554203533806,761.9628162145686 11.613023334078607,48.34110276872401,761.9628162145686 11.61431417556895,48.341578362722636,761.9628162145686 11.615662477695139,48.34197736599324,761.9628162145686 11.617057977703192,48.34229674191601,761.9628162145686 11.61849005321494,48.34253405989611,761.9628162145686 11.619947803162454,48.34268751385944,761.9628162145686 11.619947803162454,48.34268751385944,761.9628162145686 11.677415681402065,48.345624910163714,761.9628162145686 11.70987373075875,48.34789686576567,605.3032612008534</coordinates>
         </LineString>
      </Placemark>
   </Document>
</kml>
