<?xml version="1.0" ?>
<kml xmlns="http://www.opengis.net/kml/2.2">
   <Document>
      <Placemark>
         <LineString>
            <altitudeMode>absolute</altitudeMode>
            <coordinates>11.619136542719986,48.27463273558805,761.9628162145686 11.619961831453056,48.2746423203497,761.9628162145686 11.620785234615019,48.27460399575399,761.9628162145686 11.62160048485838,48.27451805349631,761.9628162145686 11.622401376938251,48.27438514766988,761.9628162145686 11.62318181497098,48.27420628978676,761.9628162145686 11.623935858857841,48.2739828410787,761.9628162145686 11.624657769519532,48.273716502136544,761.9628162145686 11.62534205259642,48.27340929996704,761.9628162145686 11.625983500281254,48.27306357256557,761.9628162145686 11.626577230965474,48.27268195112214,761.9628162145686 11.627118726396985,48.27226733999631,761.9628162145686 11.62760386606647,48.27182289461316,761.9628162145686 11.62802895856053,48.271351997448804,761.9628162145686 11.628390769643214,48.27085823228795,761.9628162145686 11.62868654685265,48.270345356949676,761.9628162145686 11.628914040426059,48.26981727468876,761.9628162145686 11.629071520394646,48.269278004490324,761.9628162145686 11.629157789719084,48.26873165048377,761.9628162145686 11.62917219336651,48.268182370708864,761.9628162145686 11.629114623261033,48.26763434547151,761.9628162145686 11.62898551907106,48.267091745530145,761.9628162145686 11.628785864828574,48.26655870035476,761.9628162145686 11.6285171814071,48.26603926670007,761.9628162145686 11.628181514916642,48.2655373977321,761.9628162145686 11.62778142110481,48.26505691294303,761.9628162145686 11.627319945883672,48.264601469083175,761.9628162145686 11.62680060213122,48.264174532331495,761.9628162145686 11.626227342944519,48.26377935191624,761.9628162145686 11.625604531548454,48.26341893538659,761.9628162145686 11.624936908089282,48.2630960257234,761.9628162145686 11.624229553565666,48.26281308046335,761.9628162145686 11.623487851171543,48.26257225299528,761.9628162145686 11.622717445344621,48.262375376171065,761.9628162145686 11.621924198831646,48.26222394835599,761.9628162145686 11.621114148096495,48.262119122024416,761.9628162145686 11.621114148096495,48.262119122024416,761.9628162145686 11.59424532859065,48.26023590115273,761.9628162145686 11.593424668137768,48.260178474116465,761.9628162145686 11.592599613091519,48.26016888345137,761.9628162145686 11.591776441847987,48.26020720217056,761.9628162145686 11.590961418485715,48.26029313866751,761.9628162145686 11.590160745126857,48.2604260389343,761.9628162145686 11.58938051476822,48.26060489153811,761.9628162145686 11.58862666494018,48.26082833531787,761.9628162145686 11.587904932545245,48.261094669742754,761.9628162145686 11.587220810219122,48.26140186785356,761.9628162145686 11.58657950454578,48.26174759168854,761.9628162145686 11.585985896443944,48.26212921007631,761.9628162145686 11.585444504026178,48.26254381866045,761.9628162145686 11.584959448213024,48.262988262003375,761.9628162145686 11.584534421363914,48.26345915760128,761.9628162145686 11.584172659163782,48.263952921627336,761.9628162145686 11.583876915979706,48.26446579620721,761.9628162145686 11.583649443875691,48.264993878019474,761.9628162145686 11.583491975445959,48.26553314800292,761.9628162145686 11.583405710598255,48.26607950194496,761.9628162145686 11.583391307388673,48.26662878171807,761.9628162145686 11.583448876978755,48.26717680692669,761.9628162145686 11.583577982754301,48.26771940672354,761.9628162145686 11.58377764361367,48.26825245155332,761.9628162145686 11.584046341401596,48.2687718845821,761.9628162145686 11.584382032432933,48.269273752573135,761.9628162145686 11.584782163019566,48.26975423597424,761.9628162145686 11.585243688883132,48.27020967798755,761.9628162145686 11.585763098306462,48.270636612400494,761.9628162145686 11.586336438848114,48.27103178996617,761.9628162145686 11.586959347417018,48.27139220313228,761.9628162145686 11.58762708347853,48.27171510893043,761.9628162145686 11.588334565139158,48.27199804985169,761.9628162145686 11.589076407835165,48.27223887254935,761.9628162145686 11.589846965330205,48.27243574422672,761.9628162145686 11.590640372709442,48.27258716658522,761.9628162145686 11.591450591042257,48.272691987226565,761.9628162145686 11.591450591042257,48.272691987226565,761.9628162145686 11.618315650132999,48.2745753143925,761.9628162145686 11.619136542719986,48.27463273558805,761.9628162145686</coordinates>
         </LineString>
      </Placemark>
   </Document>
</kml>
