<?xml version="1.0" ?>
<kml xmlns="http://www.opengis.net/kml/2.2">
   <Document>
      <Placemark>
         <LineString>
            <altitudeMode>absolute</altitudeMode>
            <coordinates>11.906464402545256,48.29524936663146,761.9628162145686 12.010648200342693,48.302486344584096,761.9628162145686 12.012114882630748,48.30258887832567,761.9628162145686 12.013562553606716,48.30277605404015,761.9628162145686 12.014980197751756,48.30304644727095,761.9628162145686 12.016357027751885,48.30339800021747,761.9628162145686 12.017682566503321,48.3038280373934,761.9628162145686 12.018946726769379,48.304333285986395,761.9628162145686 12.020139887885128,48.30490990076409,761.9628162145686 12.021252968928026,48.3055534933372,761.9628162145686 12.022277497799118,48.30625916555672,761.9628162145686 12.023205675689988,48.307021546791354,761.9628162145686 12.024030436445129,48.30783483480142,761.9628162145686 12.024745500367727,48.308692839898015,761.9628162145686 12.025345422058487,48.30958903205155,761.9628162145686 12.02582563192201,48.310516590590915,761.9628162145686 12.026182471022912,48.311468456115094,761.9628162145686 12.026413219024032,48.312437384222015,761.9628162145686 12.02651611499129,48.31341600064576,761.9628162145686 12.026490370903803,48.31439685738221,761.9628162145686 12.026336177763154,48.31537248937613,761.9628162145686 12.026336177763154,48.31537248937613,761.9628162145686 12.015944601626236,48.35896723694493,761.9628162145686 12.015713638549798,48.35993616505148,761.9628162145686 12.015356453390286,48.3608880305747,761.9628162145686 12.014875760105213,48.361815589112254,761.9628162145686 12.014275212998886,48.362711781262874,761.9628162145686 12.013559378996773,48.3635697863552,761.9628162145686 12.012733702960258,48.3643830743594,761.9628162145686 12.01180446630358,48.365145455586415,761.9628162145686 12.010778739226213,48.36585112779638,761.9628162145686 12.009664326923081,48.36649472035798,761.9628162145686 12.008469710181387,48.36707133512218,761.9628162145686 12.007203980816206,48.36757658369975,761.9628162145686 12.005876772436823,48.36800662085849,761.9628162145686 12.004498187071917,48.36835817378622,761.9628162145686 12.003078718213768,48.368628566996925,761.9628162145686 12.001629170869384,48.36881574269029,761.9628162145686 12.000160579229677,48.3689182764101,761.9628162145686 11.998684122586221,48.36893538788215,761.9628162145686 11.997211040138799,48.36886694694942,761.9628162145686 11.997211040138799,48.36886694694942,761.9628162145686 11.816010028098445,48.355853191687835,761.9628162145686 11.783545463078482,48.353590368844,605.3032612008534</coordinates>
         </LineString>
      </Placemark>
   </Document>
</kml>
