<?xml version="1.0" ?>
<kml xmlns="http://www.opengis.net/kml/2.2">
   <Document>
      <Placemark>
         <Point>
            <coordinates>11.906464402545256,48.29524936663146,761.9628162145686</coordinates>
            <altitudeMode>absolute</altitudeMode>
         </Point>
         <name>IAF</name>
      </Placemark>
      <Placemark>
         <Point>
            <coordinates>12.02750796073049,48.30331785824073,761.9628162145686</coordinates>
            <altitudeMode>absolute</altitudeMode>
         </Point>
         <name>DF</name>
      </Placemark>
      <Placemark>
         <Point>
            <coordinates>12.011840311554224,48.36912033999728,761.9628162145686</coordinates>
            <altitudeMode>absolute</altitudeMode>
         </Point>
         <name>DIF</name>
      </Placemark>
      <Placemark>
         <Point>
            <coordinates>11.816010028098445,48.355853191687835,761.9628162145686</coordinates>
            <altitudeMode>absolute</altitudeMode>
         </Point>
         <name>FAF</name>
      </Placemark>
      <Placemark>
         <Point>
            <coordinates>11.783545463078482,48.353590368844,605.3032612008534</coordinates>
            <altitudeMode>absolute</altitudeMode>
         </Point>
         <name>MAPt</name>
      </Placemark>
   </Document>
</kml>
