<?xml version="1.0" ?>
<kml xmlns="http://www.opengis.net/kml/2.2">
   <Document>
      <Placemark>
         <LineString>
            <altitudeMode>absolute</altitudeMode>
            <coordinates>11.61913090266119,48.274661250887995,761.9628162145686 11.619954307363367,48.274699569605694,761.9628162145686 11.620779596866235,48.27468997893911,761.9628162145686 11.621600489450271,48.27463255190135,761.9628162145686 11.6224107368925,48.27452772556854,761.9628162145686 11.623204172053311,48.27437629775228,761.9628162145686 11.623974755844163,48.274179420927,761.9628162145686 11.624716623217688,48.27393859345796,761.9628162145686 11.625424127829357,48.273655648197085,761.9628162145686 11.626091885029993,48.27333273853321,761.9628162145686 11.62671481286136,48.27297232200299,761.9628162145686 11.627288170742322,48.2725771415873,761.9628162145686 11.627807595550886,48.27215020483529,761.9628162145686 11.628269134827432,48.27169476097521,761.9628162145686 11.628669276846479,48.27121427618598,761.9628162145686 11.62900497732843,48.270712407217935,761.9628162145686 11.62927368258843,48.270192973563205,761.9628162145686 11.629473348946778,48.26965992838779,761.9628162145686 11.629602458253895,48.26911732844643,761.9628162145686 11.6296600294126,48.26856930320908,761.9628162145686 11.62964562581093,48.26802002343416,761.9628162145686 11.62955935861,48.267473669427616,761.9628162145686 11.629401885862933,48.26693439922918,761.9628162145686 11.629174407472606,48.26640631696829,761.9628162145686 11.62887865602767,48.265893441630084,761.9628162145686 11.628516883587519,48.265399676469336,761.9628162145686 11.628091844517675,48.26492877930515,761.9628162145686 11.627606774506996,48.264484333922276,761.9628162145686 11.627065365926992,48.26406972279682,761.9628162145686 11.62647173972127,48.263688101353885,761.9628162145686 11.625830414039305,48.26334237395302,761.9628162145686 11.625146269853357,48.26303517178427,761.9628162145686 11.624424513820152,48.26276883284298,761.9628162145686 11.623670638669667,48.2625453841359,761.9628162145686 11.62289038142207,48.26236652625388,761.9628162145686 11.62208967975018,48.262233620428646,761.9628162145686 11.62208967975018,48.262233620428646,761.9628162145686 11.595405908713031,48.25941684016584,761.9628162145686 11.5945909006917,48.2593308979097,761.9628162145686 11.593767744175786,48.25929257331557,761.9628162145686 11.592942703117735,48.25930215807882,761.9628162145686 11.592122055810737,48.25935957927595,761.9628162145686 11.591312047142166,48.25946439991861,761.9628162145686 11.590518841100273,48.259615822278356,761.9628162145686 11.589748473894506,48.25981269395686,761.9628162145686 11.589006808045289,48.26005351665554,761.9628162145686 11.588299487791794,48.26033645757769,761.9628162145686 11.587631896156298,48.260659363376604,761.9628162145686 11.587009113991279,48.26101977654332,761.9628162145686 11.58643588132047,48.26141495410948,761.9628162145686 11.585916561267807,48.26184188852279,761.9628162145686 11.585455106848661,48.26229733053635,761.9628162145686 11.585055030876228,48.26277781393762,761.9628162145686 11.584719379212318,48.26327968192875,761.9628162145686 11.584450707566605,48.26379911495757,761.9628162145686 11.584251062021487,48.26433215978738,761.9628162145686 11.584121963431544,48.26487475958423,761.9628162145686 11.584064395817167,48.265422784792854,761.9628162145686 11.584078798841679,48.26597206456597,761.9628162145686 11.584165064430215,48.26651841850802,761.9628162145686 11.58432253755716,48.26705768849146,761.9628162145686 11.584550021197229,48.267585770303704,761.9628162145686 11.58484578540352,48.26809864488353,761.9628162145686 11.585207580444452,48.268592408909484,761.9628162145686 11.585632653900477,48.26906330450725,761.9628162145686 11.586117771591198,48.26950774784995,761.9628162145686 11.586659242174274,48.26992235643376,761.9628162145686 11.587252945229352,48.2703039748211,761.9628162145686 11.58789436261356,48.270649698655525,761.9628162145686 11.588578612850059,48.270956896765654,761.9628162145686 11.589300488287828,48.271223231189744,761.9628162145686 11.590054494749614,48.27144667496859,761.9628162145686 11.59083489336588,48.27162552757136,761.9628162145686 11.591635744275722,48.27175842783704,761.9628162145686 11.591635744275722,48.27175842783704,761.9628162145686 11.618315650132999,48.2745753143925,761.9628162145686 11.61913090266119,48.274661250887995,761.9628162145686</coordinates>
         </LineString>
      </Placemark>
   </Document>
</kml>
